{"type":"FeatureCollection","features":[{"type":"Feature","geometry":{"type":"MultiPolygon","coordinates":[[[[124.450531,-9.18019],[124.03004,-9.341974],[125.061615,-9.485772],[124.919507,-8.962016],[124.450531,-9.18019]]],[[[117.567149,4.159654],[115.878849,4.352139],[114.500638,1.436037],[110.553903,0.85137],[109.645274,2.083238],[108.855479,0.832221],[110.263194,-3.002862],[115.967947,-3.608819],[117.595958,-0.422621],[118.063487,2.366929],[117.567149,4.159654]]],[[[140.974457,-2.600518],[137.794444,-1.484145],[135.47047,-3.363051],[132.709158,-0.36004],[131.20574,-1.523614],[132.325694,-2.946547],[137.706309,-5.221938],[139.093028,-7.559991],[140.97698,-9.106134],[140.974457,-2.600518]]],[[[119.846528,-0.874607],[118.757335,-2.775811],[122.107758,-4.519952],[121.692149,-1.908136],[119.846528,-0.874607]]],[[[100.947276,1.825385],[97.496837,5.251899],[95.42628,4.827338],[98.535167,1.936469],[101.104828,-2.587091],[104.297699,-5.643324],[105.782563,-5.828546],[106.063162,-3.266697],[103.711192,0.311469],[100.947276,1.825385]]]]},"properties":{"id":"ID","names":{"en":"Indonesia","ja":"インドネシア"}}},{"type":"Feature","geometry":{"type":"MultiPolygon","coordinates":[[[[102.07309,6.257514],[100.127289,6.442288],[101.283051,2.9112],[103.367361,1.538398],[103.448578,4.795071],[102.07309,6.257514]]],[[[115.146169,4.908515],[115.029778,4.820642],[114.9817,4.889065],[114.586628,4.021435],[113.99879,4.601142],[112.974376,3.144232],[109.645274,2.083238],[110.553903,0.85137],[114.500638,1.436037],[115.878849,4.352139],[117.567149,4.159654],[119.155935,5.106187],[116.973806,6.708075],[115.146169,4.908515]]]]},"properties":{"id":"MY","names":{"en":"Malaysia","ja":"マレーシア"}}},{"type":"Feature","geometry":{"type":"MultiPolygon","coordinates":[[[[-69.510089,-17.506588],[-70.394703,-18.337746],[-70.058695,-21.433377],[-70.444814,-25.344903],[-71.71345,-30.614923],[-71.412465,-32.369561],[-73.66808,-37.719415],[-73.946904,-40.972841],[-72.81607,-41.979099],[-72.727651,-44.758559],[-75.704701,-46.639255],[-74.628407,-47.767755],[-73.199086,-53.240818],[-68.44861,-52.346617],[-71.917699,-51.990055],[-73.465098,-49.759959],[-73.457863,-49.307687],[-73.098247,-49.272754],[-71.311534,-45.299456],[-72.148537,-42.998718],[-71.043282,-36.484335],[-69.832761,-34.243232],[-70.591371,-31.549598],[-68.419876,-26.179279],[-68.572373,-24.769856],[-67.193904,-22.822223],[-67.876343,-22.833592],[-69.510089,-17.506588]]],[[[-68.641998,-54.799168],[-68.641882,-54.782971],[-68.627617,-52.639572],[-68.654135,-54.886245],[-68.641998,-54.799168]]]]},"properties":{"id":"CL","names":{"en":"Chile","ja":"チリ"}}},{"type":"Feature","geometry":{"type":"Polygon","coordinates":[[[-69.510089,-17.506588],[-67.876343,-22.833592],[-67.193904,-22.822223],[-65.744613,-22.11405],[-62.650357,-22.234456],[-61.761213,-19.657765],[-59.089541,-19.286729],[-58.158797,-20.165125],[-57.551082,-18.183643],[-58.464721,-16.33125],[-60.129839,-16.273062],[-60.465271,-13.816572],[-61.847977,-13.530801],[-65.353009,-11.390621],[-66.631871,-9.904304],[-69.577635,-10.952302],[-68.684252,-12.502492],[-69.510089,-17.506588]]]},"properties":{"id":"BO","names":{"en":"Bolivia","ja":"ボリビア"}}},{"type":"Feature","geometry":{"type":"Polygon","coordinates":[[[-69.510089,-17.506588],[-68.684252,-12.502492],[-69.577635,-10.952302],[-70.680849,-9.527686],[-72.195666,-10.00559],[-73.765493,-6.904177],[-72.917948,-5.132089],[-69.96495,-4.236484],[-70.874196,-2.229579],[-72.943269,-2.419024],[-75.283488,-0.107021],[-75.560034,-1.502595],[-78.362938,-3.488727],[-80.340729,-3.393498],[-81.101457,-6.072068],[-78.98574,-8.217421],[-76.282056,-14.140924],[-75.160797,-15.393324],[-70.394703,-18.337746],[-69.510089,-17.506588]]]},"properties":{"id":"PE","names":{"en":"Peru","ja":"ペルー"}}},{"type":"Feature","geometry":{"type":"Polygon","coordinates":[[[-67.193904,-22.822223],[-68.572373,-24.769856],[-68.419876,-26.179279],[-70.591371,-31.549598],[-69.832761,-34.243232],[-71.043282,-36.484335],[-72.148537,-42.998718],[-71.311534,-45.299456],[-73.098247,-49.272754],[-73.465098,-49.759959],[-71.917699,-51.990055],[-68.44861,-52.346617],[-69.167778,-50.978225],[-65.964131,-48.056988],[-67.622467,-46.163751],[-65.841592,-45.003216],[-64.765248,-43.147393],[-65.17512,-41.010186],[-62.337799,-40.872735],[-62.026723,-38.937595],[-57.593577,-38.152765],[-56.664866,-36.851007],[-58.474192,-34.52158],[-58.200124,-32.447201],[-57.642466,-30.193092],[-57.611698,-30.182963],[-53.819217,-27.139738],[-54.600203,-25.574945],[-55.754732,-27.443698],[-58.247939,-26.758159],[-57.754067,-25.180891],[-61.006349,-23.805471],[-62.650357,-22.234456],[-65.744613,-22.11405],[-67.193904,-22.822223]]]},"properties":{"id":"AR","names":{"en":"Argentina","ja":"アルゼンチン"}}},{"type":"Feature","geometry":{"type":"Polygon","coordinates":[[[33.780935,34.976345],[33.78183,34.976223],[33.891841,34.958139],[33.898116,35.061272],[33.906505,35.069105],[33.679435,35.033899],[33.702935,34.987943],[33.701508,34.972886],[33.780935,34.976345]]]},"properties":{"id":"XX-DHEKELIA-SOVEREIGN-BASE-AREA","names":{"en":"Dhekelia Sovereign Base Area"}}},{"type":"Feature","geometry":{"type":"MultiPolygon","coordinates":[[[[33.702935,34.987943],[32.691549,35.183705],[32.659813,35.187082],[32.584809,35.172512],[32.760671,34.653225],[32.832294,34.700948],[33.015635,34.634425],[33.701508,34.972886],[33.702935,34.987943]]],[[[33.898116,35.061272],[33.891841,34.958139],[34.021961,35.057009],[33.898116,35.061272]]]]},"properties":{"id":"CY","names":{"en":"Cyprus","ja":"キプロス"}}},{"type":"Feature","geometry":{"type":"Polygon","coordinates":[[[77.800346,35.495406],[77.048971,35.110442],[73.962234,34.668169],[75.023668,32.466262],[71.860864,27.950207],[69.575577,27.188419],[71.063858,24.682577],[68.183035,23.842108],[68.944591,22.295071],[70.982432,20.71015],[72.104747,21.205064],[73.447032,16.068915],[76.543956,8.912502],[78.956798,9.274848],[80.332774,13.198147],[80.090587,15.304877],[86.268565,19.910346],[87.200938,21.551988],[89.060395,22.129869],[88.074396,25.908135],[92.001753,25.18296],[92.575879,21.977574],[95.139546,26.029937],[97.323496,28.217478],[94.63043,29.319452],[91.628339,27.852694],[88.892331,27.315543],[88.118218,27.860885],[85.821614,26.571713],[80.036386,28.837026],[80.996017,30.196969],[78.457981,32.229662],[79.420084,33.275169],[77.800346,35.495406]]]},"properties":{"id":"IN","names":{"en":"India","ja":"インド"}}},{"type":"Feature","geometry":{"type":"Polygon","coordinates":[[[77.800346,35.495406],[79.420084,33.275169],[78.457981,32.229662],[80.996017,30.196969],[85.080212,28.318789],[88.118218,27.860885],[88.892331,27.315543],[90.261804,28.335354],[91.628339,27.852694],[94.63043,29.319452],[97.323496,28.217478],[98.679279,27.577336],[98.503269,24.121268],[99.95026,21.721156],[101.159024,21.552691],[102.118655,22.397549],[106.667473,22.86752],[107.991222,21.485663],[110.156749,20.986029],[114.082367,22.529364],[114.229828,22.555813],[116.494688,22.939352],[119.558442,25.563788],[121.905854,29.284613],[120.977759,30.543318],[121.389409,32.384948],[119.207286,35.048407],[120.75058,36.459174],[118.950037,38.097262],[119.535592,39.890826],[121.361339,40.939643],[124.369965,40.098293],[126.887118,41.784918],[128.185695,41.404451],[130.530771,42.53048],[131.051566,44.909043],[132.953362,45.024385],[134.38635,48.381337],[131.023351,47.682284],[129.711183,49.274151],[128.09247,49.541577],[125.621355,53.062137],[123.614294,53.563347],[120.874255,53.28016],[120.77917,52.117595],[117.758838,49.512741],[116.684278,49.823265],[115.852701,47.705565],[116.603559,46.309319],[109.485131,42.449296],[103.720986,41.755566],[101.637599,42.515442],[96.350635,42.740906],[95.379428,44.287117],[90.90549,45.185977],[91.004812,46.74043],[87.816324,49.165837],[87.323796,49.085274],[85.498636,47.051832],[83.150356,47.211538],[82.291493,45.533191],[80.061707,45.018959],[80.210328,42.189519],[73.632642,39.448343],[74.892307,37.231114],[74.542354,37.021669],[76.777351,35.646112],[77.800346,35.495406]]]},"properties":{"id":"CN","names":{"en":"China","ja":"中国"}}},{"type":"Feature","geometry":{"type":"Polygon","coordinates":[[[34.248351,31.211449],[34.886729,29.490058],[34.955577,29.558987],[35.458125,31.491929],[34.958223,32.186454],[35.560961,32.384717],[35.75759,32.744347],[35.8211,33.406722],[35.105235,33.089016],[34.481204,31.583141],[34.248351,31.211449]]]},"properties":{"id":"IL","names":{"en":"Israel","ja":"イスラエル"}}},{"type":"Feature","geometry":{"type":"MultiPolygon","coordinates":[[[[34.481204,31.583141],[34.200269,31.314267],[34.248351,31.211449],[34.481204,31.583141]]],[[[35.560961,32.384717],[34.958223,32.186454],[35.458125,31.491929],[35.560961,32.384717]]]]},"properties":{"id":"PS","names":{"en":"Palestine","ja":"パレスチナ"}}},{"type":"Feature","geometry":{"type":"Polygon","coordinates":[[[35.105235,33.089016],[35.8211,33.406722],[35.9699,34.649849],[35.105235,33.089016]]]},"properties":{"id":"LB","names":{"en":"Lebanon","ja":"レバノン"}}},{"type":"Feature","geometry":{"type":"Polygon","coordinates":[[[34.070698,9.454592],[33.970774,8.445377],[35.920835,4.619332],[39.436176,3.462374],[41.885019,3.977226],[44.941525,4.911484],[47.979169,7.996567],[44.023855,8.985525],[42.923715,10.998787],[42.379459,12.465907],[40.104559,14.465966],[36.52638,14.263523],[34.070698,9.454592]]]},"properties":{"id":"ET","names":{"en":"Ethiopia","ja":"エチオピア"}}},{"type":"Feature","geometry":{"type":"Polygon","coordinates":[[[35.920835,4.619332],[33.970774,8.445377],[34.070698,9.454592],[32.414073,11.050851],[31.234817,9.792323],[28.843841,9.324545],[25.084081,10.293223],[24.170328,8.689327],[27.441301,5.070725],[30.839543,3.490202],[33.977078,4.219692],[35.920835,4.619332]]]},"properties":{"id":"SS","names":{"en":"South Sudan","ja":"南スーダン"}}},{"type":"Feature","geometry":{"type":"Polygon","coordinates":[[[47.979169,7.996567],[44.941525,4.911484],[41.885019,3.977226],[40.979751,2.841895],[40.979751,-0.870798],[41.535085,-1.696303],[44.550059,1.559068],[47.948497,4.457099],[50.840343,9.456122],[51.12086,11.505316],[48.939112,11.24913],[47.979169,7.996567]]]},"properties":{"id":"SO","names":{"en":"Somalia","ja":"ソマリア"}}},{"type":"Feature","geometry":{"type":"Polygon","coordinates":[[[35.920835,4.619332],[33.977078,4.219692],[34.978671,1.675945],[33.904214,-1.002573],[37.644865,-3.045963],[39.190603,-4.677504],[41.535085,-1.696303],[40.979751,-0.870798],[40.979751,2.841895],[41.885019,3.977226],[39.436176,3.462374],[35.920835,4.619332]]]},"properties":{"id":"KE","names":{"en":"Kenya","ja":"ケニア"}}},{"type":"Feature","geometry":{"type":"Polygon","coordinates":[[[34.964615,-11.573556],[34.4833,-9.946162],[32.920863,-9.4079],[33.202707,-14.013872],[34.964615,-11.573556]]]},"properties":{"id":"MW","names":{"en":"Malawi","ja":"マラウイ"}}},{"type":"Feature","geometry":{"type":"Polygon","coordinates":[[[32.920863,-9.4079],[34.4833,-9.946162],[34.964615,-11.573556],[37.427824,-11.722591],[40.43686,-10.474786],[38.778005,-6.030694],[39.190603,-4.677504],[37.644865,-3.045963],[33.904214,-1.002573],[30.471786,-1.066837],[30.5546,-2.400628],[29.404179,-4.449805],[30.752107,-8.194124],[32.920863,-9.4079]]]},"properties":{"id":"TZ","names":{"en":"United Republic of Tanzania","ja":"タンザニア"}}},{"type":"Feature","geometry":{"type":"Polygon","coordinates":[[[35.75759,32.744347],[38.774511,33.371685],[41.195656,34.768473],[42.357238,37.109984],[38.190051,36.905526],[35.911305,35.91775],[35.9699,34.649849],[35.8211,33.406722],[35.75759,32.744347]]]},"properties":{"id":"SY","names":{"en":"Syria","ja":"シリア"}}},{"type":"Feature","geometry":{"type":"Polygon","coordinates":[[[48.939112,11.24913],[44.274262,10.456732],[43.240733,11.48786],[42.923715,10.998787],[44.023855,8.985525],[47.979169,7.996567],[48.939112,11.24913]]]},"properties":{"id":"XX-SOMALILAND","names":{"en":"Somaliland"}}},{"type":"Feature","geometry":{"type":"MultiPolygon","coordinates":[[[[-54.615292,2.326267],[-52.707708,2.358927],[-51.683217,4.039374],[-54.170969,5.348375],[-54.615292,2.326267]]],[[[2.5218,51.087541],[-2.758209,47.639065],[-1.048695,46.038804],[-1.794075,43.386015],[1.429297,42.595386],[1.707006,42.502781],[3.18097,42.431484],[3.939301,43.532538],[7.36575,43.72273],[7.406969,43.763506],[7.437454,43.743361],[7.502289,43.792222],[7.022083,45.92526],[7.586028,47.584619],[6.345307,49.455349],[5.790685,49.537753],[2.5218,51.087541]]]]},"properties":{"id":"FR","names":{"en":"France","ja":"フランス"}}},{"type":"Feature","geometry":{"type":"Polygon","coordinates":[[[-54.615292,2.326267],[-54.170969,5.348375],[-57.24767,5.484931],[-58.067691,4.151143],[-56.481819,1.941614],[-54.615292,2.326267]]]},"properties":{"id":"SR","names":{"en":"Suriname","ja":"スリナム"}}},{"type":"Feature","geometry":{"type":"Polygon","coordinates":[[[-56.481819,1.941614],[-58.067691,4.151143],[-57.24767,5.484931],[-60.020985,8.55801],[-61.379608,5.9053],[-60.739854,5.202138],[-59.52923,3.931906],[-59.242141,1.377798],[-56.481819,1.941614]]]},"properties":{"id":"GY","names":{"en":"Guyana","ja":"ガイアナ"}}},{"type":"Feature","geometry":{"type":"Polygon","coordinates":[[[128.364919,38.624335],[126.667459,37.82781],[126.532807,34.292222],[129.4546,35.513251],[128.364919,38.624335]]]},"properties":{"id":"KR","names":{"en":"South Korea","ja":"韓国"}}},{"type":"Feature","geometry":{"type":"Polygon","coordinates":[[[128.364919,38.624335],[130.699962,42.295111],[130.530771,42.53048],[128.185695,41.404451],[126.887118,41.784918],[124.369965,40.098293],[125.013194,37.905992],[126.667459,37.82781],[128.364919,38.624335]]]},"properties":{"id":"KP","names":{"en":"North Korea","ja":"北朝鮮"}}},{"type":"Feature","geometry":{"type":"Polygon","coordinates":[[[-17.013743,21.419971],[-14.839813,21.450268],[-14.019992,23.410252],[-10.921835,27.009825],[-8.682385,27.661439],[-7.619453,29.389422],[-5.756156,29.614071],[-1.249557,32.08166],[-2.222564,35.089301],[-2.912913,35.276923],[-2.947825,35.329779],[-5.340728,35.847357],[-5.398859,35.924504],[-6.822092,34.039618],[-8.529164,33.268704],[-9.655141,30.126899],[-14.410146,26.260077],[-17.013743,21.419971]]]},"properties":{"id":"MA","names":{"en":"Morocco","ja":"モロッコ"}}},{"type":"Feature","geometry":{"type":"Polygon","coordinates":[[[-8.682385,27.661439],[-10.921835,27.009825],[-14.019992,23.410252],[-14.839813,21.450268],[-17.013743,21.419971],[-17.056874,20.766913],[-13.015247,21.333428],[-12.015308,23.495182],[-12.015308,25.9949],[-8.707216,25.995004],[-8.682385,27.285416],[-8.682385,27.661439]]]},"properties":{"id":"EH","names":{"en":"Western Sahara","ja":"西サハラ"}}},{"type":"Feature","geometry":{"type":"Polygon","coordinates":[[[-83.6965,10.936594],[-85.701736,11.08088],[-85.63858,9.905463],[-82.897629,8.034748],[-82.573598,9.576199],[-83.665352,10.935318],[-83.686867,10.93797],[-83.6965,10.936594]]]},"properties":{"id":"CR","names":{"en":"Costa Rica","ja":"コスタリカ"}}},{"type":"Feature","geometry":{"type":"Polygon","coordinates":[[[-85.701736,11.08088],[-83.6965,10.936594],[-83.130444,14.997012],[-84.77017,14.805144],[-87.314036,12.981553],[-85.701736,11.08088]]]},"properties":{"id":"NI","names":{"en":"Nicaragua","ja":"ニカラグア"}}},{"type":"Feature","geometry":{"type":"Polygon","coordinates":[[[18.626387,3.476869],[16.196665,2.236454],[13.294568,2.161058],[14.183868,1.380847],[14.226966,-2.323113],[11.55824,-2.349365],[11.114016,-3.936856],[12.009608,-5.019631],[13.073703,-4.635323],[14.831167,-4.815054],[17.749541,-0.523429],[18.626387,3.476869]]]},"properties":{"id":"CG","names":{"en":"Republic of the Congo","ja":"コンゴ共和国"}}},{"type":"Feature","geometry":{"type":"Polygon","coordinates":[[[18.626387,3.476869],[17.749541,-0.523429],[14.831167,-4.815054],[13.073703,-4.635323],[12.210541,-5.763442],[13.183849,-5.856459],[16.597364,-5.924702],[17.536531,-8.015117],[19.521836,-7.001949],[21.784954,-7.283379],[21.854097,-9.61781],[23.967457,-10.872307],[25.994051,-11.904802],[28.497154,-11.857363],[28.915268,-8.472867],[30.752107,-8.194124],[29.404179,-4.449805],[29.015365,-2.720711],[29.577915,-1.38839],[29.928281,0.785018],[31.242826,2.051168],[30.839543,3.490202],[27.441301,5.070725],[25.58126,5.374919],[22.492714,4.174036],[19.71955,5.135967],[18.626387,3.476869]]]},"properties":{"id":"CD","names":{"en":"Democratic Republic of the Congo","ja":"コンゴ民主共和国"}}},{"type":"Feature","geometry":{"type":"Polygon","coordinates":[[[91.628339,27.852694],[90.261804,28.335354],[88.892331,27.315543],[91.628339,27.852694]]]},"properties":{"id":"BT","names":{"en":"Bhutan","ja":"ブータン"}}},{"type":"Feature","geometry":{"type":"Polygon","coordinates":[[[31.764345,52.100568],[29.297002,51.373713],[25.767915,51.928511],[23.606238,51.517399],[22.539637,49.0722],[22.13284,48.404798],[22.877601,47.946739],[26.617889,48.258968],[29.540398,47.212546],[28.199498,45.461774],[29.659028,45.215888],[30.991384,46.601264],[33.628517,46.124935],[35.001891,45.729003],[38.216645,47.103258],[39.182755,49.858508],[35.69687,50.345145],[33.804065,52.354609],[31.764345,52.100568]]]},"properties":{"id":"UA","names":{"en":"Ukraine","ja":"ウクライナ"}}},{"type":"Feature","geometry":{"type":"Polygon","coordinates":[[[23.606238,51.517399],[25.767915,51.928511],[29.297002,51.373713],[31.764345,52.100568],[30.918608,55.407627],[28.148907,56.142414],[26.594531,55.666991],[25.564,54.303146],[23.485625,53.939293],[23.606238,51.517399]]]},"properties":{"id":"BY","names":{"en":"Belarus","ja":"ベラルーシ"}}},{"type":"Feature","geometry":{"type":"Polygon","coordinates":[[[16.487071,-28.572931],[19.983204,-28.392684],[19.981447,-24.752493],[20.984796,-21.963981],[20.975081,-18.319346],[25.259781,-17.794107],[23.381652,-17.641144],[20.806202,-18.031405],[18.445726,-17.389273],[11.766124,-17.252699],[11.849082,-18.143183],[14.508556,-22.548028],[15.295258,-27.322442],[16.487071,-28.572931]]]},"properties":{"id":"NA","names":{"en":"Namibia","ja":"ナミビア"}}},{"type":"Feature","geometry":{"type":"Polygon","coordinates":[[[19.981447,-24.752493],[19.983204,-28.392684],[16.487071,-28.572931],[18.172862,-31.663263],[18.475352,-33.899835],[19.953461,-34.808689],[22.629893,-33.995782],[27.100922,-33.525323],[30.392345,-30.847101],[32.379405,-28.55283],[32.893077,-26.846124],[32.113884,-26.840014],[31.157043,-27.205573],[31.119836,-25.910045],[31.949243,-25.958104],[31.288922,-22.39734],[29.350074,-22.186707],[24.79862,-25.829223],[23.006998,-25.310805],[21.687182,-26.855207],[19.981447,-24.752493]],[[28.980846,-28.909035],[28.054701,-30.649704],[27.24183,-29.548996],[28.980846,-28.909035]]]},"properties":{"id":"ZA","names":{"en":"South Africa","ja":"南アフリカ"}}},{"type":"Feature","geometry":{"type":"Polygon","coordinates":[[[-63.017569,18.033391],[-63.017649,18.122138],[-63.107004,18.06212],[-63.017569,18.033391]]]},"properties":{"id":"MF","names":{"en":"Saint Martin"}}},{"type":"Feature","geometry":{"type":"Polygon","coordinates":[[[-63.107004,18.06212],[-63.097646,18.035956],[-63.017569,18.033391],[-63.107004,18.06212]]]},"properties":{"id":"SX","names":{"en":"Sint Maarten"}}},{"type":"Feature","geometry":{"type":"Polygon","coordinates":[[[56.383311,24.978217],[55.186843,22.703577],[54.97838,19.995421],[51.978615,18.995638],[53.090343,16.642401],[57.709727,18.943996],[59.791759,22.198065],[56.383311,24.978217]]]},"properties":{"id":"OM","names":{"en":"Oman","ja":"オマーン"}}},{"type":"Feature","geometry":{"type":"Polygon","coordinates":[[[70.958955,40.238372],[70.947793,42.248146],[66.688208,41.199192],[64.855038,43.712914],[62.026115,43.480629],[58.582191,45.548694],[55.975839,44.994412],[55.978422,41.321717],[58.612267,42.780852],[60.414534,41.235262],[66.519588,37.36418],[67.780544,37.188868],[69.198029,40.545847],[70.958955,40.238372]]]},"properties":{"id":"UZ","names":{"en":"Uzbekistan","ja":"ウズベキスタン"}}},{"type":"Feature","geometry":{"type":"Polygon","coordinates":[[[87.323796,49.085274],[85.263095,49.581523],[83.433956,50.992651],[79.990083,50.788116],[77.866802,53.272331],[75.640375,54.09887],[74.213899,53.59704],[71.477115,54.10967],[70.665743,55.309183],[61.007573,53.635745],[61.372098,50.782483],[58.308409,51.150031],[55.659992,50.530043],[50.747372,51.709041],[47.556921,50.45258],[46.753818,48.91407],[49.227131,46.327879],[51.187022,47.116889],[52.566661,45.400702],[50.847179,44.189276],[52.437671,41.748876],[54.047171,42.345401],[55.978422,41.321717],[55.975839,44.994412],[58.582191,45.548694],[62.026115,43.480629],[64.855038,43.712914],[66.688208,41.199192],[70.947793,42.248146],[78.496118,42.875601],[80.210328,42.189519],[80.061707,45.018959],[82.291493,45.533191],[83.150356,47.211538],[85.498636,47.051832],[87.323796,49.085274]],[[63.383914,45.565824],[62.812527,46.061427],[63.754899,46.296658],[63.383914,45.565824]]]},"properties":{"id":"KZ","names":{"en":"Kazakhstan","ja":"カザフスタン"}}},{"type":"Feature","geometry":{"type":"Polygon","coordinates":[[[70.958955,40.238372],[69.198029,40.545847],[67.780544,37.188868],[70.974045,38.473673],[71.61106,36.704841],[74.892307,37.231114],[73.632642,39.448343],[70.958955,40.238372]]]},"properties":{"id":"TJ","names":{"en":"Tajikistan","ja":"タジキスタン"}}},{"type":"Feature","geometry":{"type":"Polygon","coordinates":[[[26.594531,55.666991],[22.094082,56.41741],[21.053396,56.072618],[21.267589,55.248684],[22.76722,54.35627],[23.485625,53.939293],[25.564,54.303146],[26.594531,55.666991]]]},"properties":{"id":"LT","names":{"en":"Lithuania","ja":"リトアニア"}}},{"type":"Feature","geometry":{"type":"Polygon","coordinates":[[[-57.602793,-30.190517],[-56.831281,-30.102037],[-53.126856,-32.754847],[-53.379095,-33.740676],[-51.122548,-30.256036],[-48.815338,-28.610447],[-47.825551,-24.894138],[-44.435658,-22.996759],[-42.058217,-22.95379],[-39.709788,-19.416111],[-38.864369,-15.843357],[-39.062489,-13.399998],[-35.305084,-9.193048],[-34.797353,-7.158461],[-35.510569,-5.143731],[-37.182932,-4.910903],[-39.985707,-2.848403],[-43.311766,-2.346467],[-47.584514,-0.578247],[-50.372841,-1.973728],[-51.201568,-0.049086],[-49.978831,1.072211],[-51.683217,4.039374],[-52.707708,2.358927],[-54.615292,2.326267],[-56.481819,1.941614],[-59.242141,1.377798],[-59.52923,3.931906],[-60.739854,5.202138],[-61.542104,4.263023],[-64.063811,3.911597],[-64.080864,1.647394],[-66.875061,1.22251],[-69.848807,1.668892],[-69.399454,-1.182717],[-69.96495,-4.236484],[-72.917948,-5.132089],[-73.765493,-6.904177],[-72.195666,-10.00559],[-70.680849,-9.527686],[-69.577635,-10.952302],[-66.631871,-9.904304],[-65.353009,-11.390621],[-61.847977,-13.530801],[-60.465271,-13.816572],[-60.129839,-16.273062],[-58.464721,-16.33125],[-57.551082,-18.183643],[-58.158797,-20.165125],[-57.986818,-22.035295],[-55.89294,-22.306803],[-54.600203,-25.574945],[-53.819217,-27.139738],[-57.611698,-30.182963],[-57.602793,-30.190517]]]},"properties":{"id":"BR","names":{"en":"Brazil","ja":"ブラジル"}}},{"type":"Feature","geometry":{"type":"Polygon","coordinates":[[[-57.602793,-30.190517],[-57.642466,-30.193092],[-58.200124,-32.447201],[-57.82251,-34.475109],[-54.93932,-34.969903],[-53.379095,-33.740676],[-53.126856,-32.754847],[-56.831281,-30.102037],[-57.602793,-30.190517]]]},"properties":{"id":"UY","names":{"en":"Uruguay","ja":"ウルグアイ"}}},{"type":"Feature","geometry":{"type":"Polygon","coordinates":[[[116.684278,49.823265],[114.286285,50.276881],[110.731359,49.137674],[105.32864,50.476455],[103.66807,50.131205],[102.051217,51.383609],[98.886398,52.128551],[97.301688,49.725545],[92.301683,50.843358],[87.816324,49.165837],[91.004812,46.74043],[90.90549,45.185977],[95.379428,44.287117],[96.350635,42.740906],[101.637599,42.515442],[103.720986,41.755566],[109.485131,42.449296],[116.603559,46.309319],[115.852701,47.705565],[116.684278,49.823265]]]},"properties":{"id":"MN","names":{"en":"Mongolia","ja":"モンゴル"}}},{"type":"Feature","geometry":{"type":"MultiPolygon","coordinates":[[[[87.816324,49.165837],[92.301683,50.843358],[97.301688,49.725545],[98.886398,52.128551],[102.051217,51.383609],[103.66807,50.131205],[105.32864,50.476455],[110.731359,49.137674],[114.286285,50.276881],[116.684278,49.823265],[117.758838,49.512741],[120.77917,52.117595],[120.874255,53.28016],[123.614294,53.563347],[125.621355,53.062137],[128.09247,49.541577],[129.711183,49.274151],[131.023351,47.682284],[134.38635,48.381337],[132.953362,45.024385],[131.051566,44.909043],[130.530771,42.53048],[130.699962,42.295111],[135.139903,43.508368],[140.16505,48.449408],[141.432953,53.148871],[139.815929,54.215155],[137.918224,53.586615],[135.534255,55.086565],[143.159679,59.353909],[154.048676,59.052802],[154.22077,59.86962],[157.537341,61.791946],[160.039012,61.846246],[160.381794,60.701606],[159.023774,58.414781],[156.125255,56.832017],[155.551177,55.284205],[156.719698,50.886454],[162.130147,54.772415],[161.993228,58.087392],[163.651541,60.051663],[169.166515,60.567328],[170.400645,59.965644],[173.544607,61.749091],[177.306814,62.582099],[178.282563,64.35399],[180,65.06619],[180,68.98105],[175.500115,69.8735],[170.61085,70.116278],[169.625499,68.777248],[167.674083,69.771877],[161.473806,69.39704],[159.689464,70.670966],[155.936371,71.099351],[152.210948,70.880561],[149.611339,72.148383],[141.550629,72.774319],[138.756033,71.643012],[134.167654,71.370795],[132.717784,71.946234],[130.90919,70.756049],[129.248709,71.549872],[127.987559,73.470852],[124.336192,73.804836],[120.533702,72.874213],[118.450206,73.588772],[111.803722,73.744208],[113.459727,76.148383],[111.090343,76.762274],[105.943207,77.000067],[104.023285,77.7331],[97.823904,75.988105],[93.685802,76.13227],[87.024587,75.164211],[86.783214,73.902248],[80.574474,73.584174],[80.704112,72.545356],[75.22755,71.777411],[74.316173,70.520331],[74.730317,67.686265],[72.493663,66.618801],[72.827403,70.887641],[72.496104,72.787665],[68.989106,72.705878],[66.771007,69.740668],[60.926606,69.867499],[58.878754,69.003119],[54.239757,68.21133],[53.437022,68.918158],[45.853201,66.88703],[43.793036,67.343394],[39.826915,65.607001],[37.437811,63.792281],[35.013989,64.423321],[34.803559,66.613511],[37.927094,66.088772],[41.016612,67.697903],[35.96697,69.176825],[30.840954,69.805842],[28.954077,69.027261],[29.916241,67.508129],[29.78028,64.795581],[31.222156,62.491716],[27.807872,60.553046],[28.019054,59.481757],[27.352935,57.527601],[28.148907,56.142414],[30.918608,55.407627],[31.764345,52.100568],[33.804065,52.354609],[35.69687,50.345145],[39.182755,49.858508],[38.216645,47.103258],[37.478282,44.677191],[39.985976,43.38899],[44.85936,42.75951],[46.430892,41.890442],[48.578949,41.845282],[46.700938,44.446194],[49.227131,46.327879],[46.753818,48.91407],[47.556921,50.45258],[50.747372,51.709041],[55.659992,50.530043],[58.308409,51.150031],[61.372098,50.782483],[61.007573,53.635745],[70.665743,55.309183],[71.477115,54.10967],[74.213899,53.59704],[75.640375,54.09887],[77.866802,53.272331],[79.990083,50.788116],[83.433956,50.992651],[85.263095,49.581523],[87.323796,49.085274],[87.816324,49.165837]]],[[[22.76722,54.35627],[21.267589,55.248684],[20.989431,55.273116],[20.924569,55.282658],[19.609548,54.456732],[22.76722,54.35627]]],[[[-180,65.066229],[-175.908839,65.402953],[-173.106265,64.24098],[-171.895194,66.970729],[-173.646469,67.115615],[-180,68.98237],[-180,65.066229]]],[[[142.529063,54.297187],[141.639008,51.884508],[143.174164,49.245998],[144.282725,49.25019],[142.529063,54.297187]]],[[[51.409516,71.806138],[55.162608,70.553127],[56.435232,73.230129],[53.15561,73.15058],[51.409516,71.806138]]],[[[145.366222,75.540229],[138.966319,76.201646],[139.015961,74.657538],[145.366222,75.540229]]],[[[99.885997,79.04149],[99.198985,80.049994],[94.992931,80.101874],[95.01824,79.03852],[99.885997,79.04149]]]]},"properties":{"id":"RU","names":{"en":"Russia","ja":"ロシア"}}},{"type":"Feature","geometry":{"type":"Polygon","coordinates":[[[14.810393,50.858447],[13.815725,48.76643],[16.945043,48.604166],[18.833196,49.510261],[14.810393,50.858447]]]},"properties":{"id":"CZ","names":{"en":"Czechia","ja":"チェコ"}}},{"type":"Feature","geometry":{"type":"Polygon","coordinates":[[[13.815725,48.76643],[14.810393,50.858447],[14.263901,53.699976],[9.437503,54.810411],[8.660776,54.896311],[7.194591,53.245022],[5.99491,50.749927],[6.117487,50.120456],[6.345307,49.455349],[7.586028,47.584619],[9.547482,47.534547],[12.744834,47.66536],[13.815725,48.76643]]]},"properties":{"id":"DE","names":{"en":"Germany","ja":"ドイツ"}}},{"type":"Feature","geometry":{"type":"Polygon","coordinates":[[[24.306159,57.868186],[27.352935,57.527601],[28.019054,59.481757],[24.080577,59.395453],[24.306159,57.868186]]]},"properties":{"id":"EE","names":{"en":"Estonia","ja":"エストニア"}}},{"type":"Feature","geometry":{"type":"Polygon","coordinates":[[[27.352935,57.527601],[24.306159,57.868186],[21.699229,57.555325],[21.053396,56.072618],[22.094082,56.41741],[26.594531,55.666991],[28.148907,56.142414],[27.352935,57.527601]]]},"properties":{"id":"LV","names":{"en":"Latvia","ja":"ラトビア"}}},{"type":"Feature","geometry":{"type":"MultiPolygon","coordinates":[[[[20.623165,69.036356],[25.651643,68.883497],[27.897294,70.070685],[28.954077,69.027261],[30.840954,69.805842],[28.191417,71.086127],[25.365001,70.976142],[18.300955,69.486762],[16.210623,67.958808],[13.256033,66.724066],[12.471528,65.089301],[7.271169,63.014106],[4.989106,61.411119],[5.506923,58.729898],[8.122895,58.102037],[11.437511,58.991726],[12.877126,61.370984],[11.992425,63.288903],[14.540538,66.125448],[18.171841,68.535921],[20.623165,69.036356]]],[[[20.208751,78.638088],[17.562511,79.897854],[11.822276,79.845038],[11.882091,78.643866],[16.590668,76.57803],[20.208751,78.638088]]]]},"properties":{"id":"NO","names":{"en":"Norway","ja":"ノルウェー"}}},{"type":"Feature","geometry":{"type":"Polygon","coordinates":[[[20.623165,69.036356],[18.171841,68.535921],[14.540538,66.125448],[11.992425,63.288903],[12.877126,61.370984],[11.437511,58.991726],[13.280528,55.345445],[16.038259,56.255072],[17.360037,62.355658],[20.786469,63.878607],[22.677582,65.764716],[24.163097,65.822699],[23.573682,67.97332],[20.623165,69.036356]]]},"properties":{"id":"SE","names":{"en":"Sweden","ja":"スウェーデン"}}},{"type":"Feature","geometry":{"type":"Polygon","coordinates":[[[28.954077,69.027261],[27.897294,70.070685],[25.651643,68.883497],[20.623165,69.036356],[23.573682,67.97332],[24.163097,65.822699],[23.372813,63.900621],[21.496593,63.20897],[21.469981,60.608303],[23.127452,59.886379],[27.807872,60.553046],[31.222156,62.491716],[29.78028,64.795581],[29.916241,67.508129],[28.954077,69.027261]]]},"properties":{"id":"FI","names":{"en":"Finland","ja":"フィンランド"}}},{"type":"Feature","geometry":{"type":"Polygon","coordinates":[[[107.520393,14.704582],[107.514295,12.343847],[104.451345,10.419664],[104.774595,8.817867],[109.018077,11.355902],[109.465017,12.913316],[108.882823,15.336168],[105.648285,18.892727],[107.991222,21.485663],[106.667473,22.86752],[102.118655,22.397549],[104.95688,20.091798],[104.721959,18.792007],[107.390633,15.935824],[107.520393,14.704582]]]},"properties":{"id":"VN","names":{"en":"Vietnam","ja":"ベトナム"}}},{"type":"Feature","geometry":{"type":"Polygon","coordinates":[[[107.520393,14.704582],[105.184308,14.34574],[103.085005,14.295821],[102.913585,11.645901],[104.451345,10.419664],[107.514295,12.343847],[107.520393,14.704582]]]},"properties":{"id":"KH","names":{"en":"Cambodia","ja":"カンボジア"}}},{"type":"Feature","geometry":{"type":"Polygon","coordinates":[[[6.117487,50.120456],[5.790685,49.537753],[6.345307,49.455349],[6.117487,50.120456]]]},"properties":{"id":"LU","names":{"en":"Luxembourg","ja":"ルクセンブルク"}}},{"type":"Feature","geometry":{"type":"Polygon","coordinates":[[[56.279055,25.627446],[56.077397,26.061048],[54.382579,24.254584],[51.569347,24.256171],[52.583074,22.931108],[55.186843,22.703577],[56.383311,24.978217],[56.279055,25.627446]]]},"properties":{"id":"AE","names":{"en":"United Arab Emirates","ja":"アラブ首長国連邦"}}},{"type":"Feature","geometry":{"type":"Polygon","coordinates":[[[2.5218,51.087541],[5.790685,49.537753],[6.117487,50.120456],[5.99491,50.749927],[4.261068,51.369379],[4.221491,51.368001],[3.349415,51.375223],[2.5218,51.087541]]]},"properties":{"id":"BE","names":{"en":"Belgium","ja":"ベルギー"}}},{"type":"Feature","geometry":{"type":"Polygon","coordinates":[[[39.985976,43.38899],[41.520763,41.514228],[43.440428,41.106588],[45.0024,41.290452],[46.430892,41.890442],[44.85936,42.75951],[39.985976,43.38899]]]},"properties":{"id":"GE","names":{"en":"Georgia","ja":"ジョージア"}}},{"type":"Feature","geometry":{"type":"Polygon","coordinates":[[[20.567147,41.873182],[20.965262,40.849394],[22.916978,41.335773],[22.345023,42.313439],[21.564066,42.246289],[20.567147,41.873182]]]},"properties":{"id":"MK","names":{"en":"North Macedonia","ja":"北マケドニア"}}},{"type":"Feature","geometry":{"type":"Polygon","coordinates":[[[20.567147,41.873182],[20.064956,42.546758],[19.365082,41.852362],[19.999848,39.693508],[20.965262,40.849394],[20.567147,41.873182]]]},"properties":{"id":"AL","names":{"en":"Albania","ja":"アルバニア"}}},{"type":"Feature","geometry":{"type":"MultiPolygon","coordinates":[[[[45.0024,41.290452],[46.514039,38.882176],[48.874278,38.434068],[49.893403,40.369045],[48.578949,41.845282],[46.430892,41.890442],[45.0024,41.290452]]],[[[46.135871,38.863701],[44.774559,39.702797],[44.806993,39.639902],[46.135871,38.863701]]]]},"properties":{"id":"AZ","names":{"en":"Azerbaijan","ja":"アゼルバイジャン"}}},{"type":"Feature","geometry":{"type":"Polygon","coordinates":[[[20.064956,42.546758],[20.567147,41.873182],[21.564066,42.246289],[20.345352,42.827439],[20.064956,42.546758]]]},"properties":{"id":"XK","names":{"en":"Kosovo","ja":"コソボ"}}},{"type":"Feature","geometry":{"type":"MultiPolygon","coordinates":[[[[43.440428,41.106588],[41.520763,41.514228],[37.504731,41.042914],[33.324474,42.019029],[31.248871,41.105658],[29.231781,41.240709],[26.735606,40.403551],[27.246104,37.336168],[30.440766,36.239325],[32.803722,36.027167],[34.770763,36.816067],[35.911305,35.91775],[38.190051,36.905526],[42.357238,37.109984],[44.766135,37.14192],[44.806993,39.639902],[44.774559,39.702797],[43.440428,41.106588]]],[[[28.016775,41.972561],[26.333359,41.713036],[26.043956,40.738471],[28.016775,41.972561]]]]},"properties":{"id":"TR","names":{"en":"Turkey","ja":"トルコ"}}},{"type":"Feature","geometry":{"type":"Polygon","coordinates":[[[-1.794075,43.386015],[-7.230092,43.56863],[-8.750803,41.96898],[-7.145373,41.98749],[-7.414418,37.192816],[-5.358387,36.141109],[-5.338773,36.14112],[-1.898671,36.950059],[-0.344553,38.461615],[0.990408,41.0397],[3.18097,42.431484],[1.707006,42.502781],[1.447901,42.434646],[1.429297,42.595386],[-1.794075,43.386015]]]},"properties":{"id":"ES","names":{"en":"Spain","ja":"スペイン"}}},{"type":"Feature","geometry":{"type":"Polygon","coordinates":[[[102.118655,22.397549],[101.159024,21.552691],[100.099295,20.317805],[102.078503,18.213799],[104.000039,18.318444],[105.650998,15.634602],[105.184308,14.34574],[107.520393,14.704582],[107.390633,15.935824],[104.721959,18.792007],[104.95688,20.091798],[102.118655,22.397549]]]},"properties":{"id":"LA","names":{"en":"Laos","ja":"ラオス"}}},{"type":"Feature","geometry":{"type":"Polygon","coordinates":[[[80.210328,42.189519],[78.496118,42.875601],[70.947793,42.248146],[70.958955,40.238372],[73.632642,39.448343],[80.210328,42.189519]]]},"properties":{"id":"KG","names":{"en":"Kyrgyzstan","ja":"キルギス"}}},{"type":"Feature","geometry":{"type":"Polygon","coordinates":[[[45.0024,41.290452],[43.440428,41.106588],[44.774559,39.702797],[46.135871,38.863701],[46.514039,38.882176],[45.0024,41.290452]]]},"properties":{"id":"AM","names":{"en":"Armenia","ja":"アルメニア"}}},{"type":"Feature","geometry":{"type":"Polygon","coordinates":[[[8.660776,54.896311],[9.437503,54.810411],[10.672211,56.165188],[9.96697,57.591376],[8.565766,56.578803],[8.660776,54.896311]]]},"properties":{"id":"DK","names":{"en":"Denmark","ja":"デンマーク"}}},{"type":"Feature","geometry":{"type":"Polygon","coordinates":[[[11.505112,33.181225],[9.519708,30.228905],[9.93591,27.866724],[9.401162,26.113394],[11.968861,23.517351],[14.979909,22.995664],[15.985101,23.44472],[23.981306,19.496124],[24.981245,21.995351],[25.15089,31.65648],[21.608653,32.930732],[19.056814,30.266181],[16.044607,31.275539],[15.195974,32.389797],[11.505112,33.181225]]]},"properties":{"id":"LY","names":{"en":"Libya","ja":"リビア"}}},{"type":"Feature","geometry":{"type":"Polygon","coordinates":[[[11.505112,33.181225],[9.858897,37.328803],[8.60251,36.939511],[7.75072,33.207664],[9.519708,30.228905],[11.505112,33.181225]]]},"properties":{"id":"TN","names":{"en":"Tunisia","ja":"チュニジア"}}},{"type":"Feature","geometry":{"type":"Polygon","coordinates":[[[22.877601,47.946739],[20.242826,46.108091],[22.69164,44.228435],[25.35962,43.654287],[28.57838,43.741278],[29.659028,45.215888],[28.199498,45.461774],[26.617889,48.258968],[22.877601,47.946739]]]},"properties":{"id":"RO","names":{"en":"Romania","ja":"ルーマニア"}}},{"type":"Feature","geometry":{"type":"Polygon","coordinates":[[[22.877601,47.946739],[22.13284,48.404798],[17.148338,48.005443],[16.094035,46.862774],[16.515302,46.501711],[18.901306,45.931203],[20.242826,46.108091],[22.877601,47.946739]]]},"properties":{"id":"HU","names":{"en":"Hungary","ja":"ハンガリー"}}},{"type":"Feature","geometry":{"type":"Polygon","coordinates":[[[22.539637,49.0722],[18.833196,49.510261],[16.945043,48.604166],[17.148338,48.005443],[22.13284,48.404798],[22.539637,49.0722]]]},"properties":{"id":"SK","names":{"en":"Slovakia","ja":"スロバキア"}}},{"type":"Feature","geometry":{"type":"Polygon","coordinates":[[[18.833196,49.510261],[22.539637,49.0722],[23.606238,51.517399],[23.485625,53.939293],[22.76722,54.35627],[19.609548,54.456732],[17.885427,54.824123],[14.210053,53.938463],[14.200819,53.878157],[14.263901,53.699976],[14.810393,50.858447],[18.833196,49.510261]]]},"properties":{"id":"PL","names":{"en":"Poland","ja":"ポーランド"}}},{"type":"Feature","geometry":{"type":"Polygon","coordinates":[[[-7.2471,55.069322],[-8.26301,55.161078],[-10.234609,51.85102],[-6.448638,52.322699],[-6.269887,54.097927],[-7.2471,55.069322]]]},"properties":{"id":"IE","names":{"en":"Ireland","ja":"アイルランド"}}},{"type":"Feature","geometry":{"type":"Polygon","coordinates":[[[-2.665354,51.617255],[0.370291,50.818793],[0.569591,52.969306],[-1.630849,55.58511],[-1.829457,57.613471],[-3.052887,58.648139],[-5.807362,57.84394],[-5.007802,55.141181],[-3.810129,54.866278],[-4.379262,51.726874],[-2.665354,51.617255]]]},"properties":{"id":"GB","names":{"en":"United Kingdom","ja":"イギリス"}}},{"type":"Feature","geometry":{"type":"Polygon","coordinates":[[[20.965262,40.849394],[19.999848,39.693508],[21.384939,38.211127],[22.5713,40.054267],[26.043956,40.738471],[26.333359,41.713036],[22.916978,41.335773],[20.965262,40.849394]]]},"properties":{"id":"GR","names":{"en":"Greece","ja":"ギリシャ"}}},{"type":"Feature","geometry":{"type":"Polygon","coordinates":[[[32.920863,-9.4079],[30.752107,-8.194124],[28.915268,-8.472867],[28.497154,-11.857363],[25.994051,-11.904802],[23.967457,-10.872307],[24.000633,-13.001479],[21.979878,-13.001479],[21.983805,-16.165886],[23.381652,-17.641144],[25.259781,-17.794107],[27.048457,-17.944278],[29.186311,-15.812832],[30.396263,-15.635995],[33.202707,-14.013872],[32.920863,-9.4079]]]},"properties":{"id":"ZM","names":{"en":"Zambia","ja":"ザンビア"}}},{"type":"Feature","geometry":{"type":"Polygon","coordinates":[[[-10.282236,8.484625],[-11.272666,9.996006],[-13.301096,9.04149],[-11.476186,6.91942],[-10.282236,8.484625]]]},"properties":{"id":"SL","names":{"en":"Sierra Leone","ja":"シエラレオネ"}}},{"type":"Feature","geometry":{"type":"Polygon","coordinates":[[[-13.301096,9.04149],[-11.272666,9.996006],[-10.282236,8.484625],[-8.485446,7.557989],[-7.989663,10.161991],[-8.993839,12.387514],[-11.388422,12.403895],[-13.728279,12.673388],[-15.020985,10.967475],[-13.301096,9.04149]]]},"properties":{"id":"GN","names":{"en":"Guinea","ja":"ギニア"}}},{"type":"Feature","geometry":{"type":"Polygon","coordinates":[[[-11.476186,6.91942],[-7.540666,4.352845],[-8.485446,7.557989],[-10.282236,8.484625],[-11.476186,6.91942]]]},"properties":{"id":"LR","names":{"en":"Liberia","ja":"リベリア"}}},{"type":"Feature","geometry":{"type":"Polygon","coordinates":[[[22.861064,10.919154],[18.589283,8.047882],[15.481049,7.523263],[14.523899,5.279679],[16.196665,2.236454],[18.626387,3.476869],[19.71955,5.135967],[22.492714,4.174036],[25.58126,5.374919],[27.441301,5.070725],[24.170328,8.689327],[22.861064,10.919154]]]},"properties":{"id":"CF","names":{"en":"Central African Republic","ja":"中央アフリカ共和国"}}},{"type":"Feature","geometry":{"type":"Polygon","coordinates":[[[22.861064,10.919154],[24.170328,8.689327],[25.084081,10.293223],[28.843841,9.324545],[31.234817,9.792323],[32.414073,11.050851],[34.070698,9.454592],[36.52638,14.263523],[37.000459,17.072602],[38.601573,18.004828],[37.434337,18.861721],[36.883637,21.995714],[34.084179,21.995454],[33.866456,21.749724],[33.558442,21.710957],[33.181136,21.995409],[24.981245,21.995351],[23.981306,19.496124],[23.984406,15.72116],[21.935126,13.059152],[22.861064,10.919154]]]},"properties":{"id":"SD","names":{"en":"Sudan","ja":"スーダン"}}},{"type":"Feature","geometry":{"type":"Polygon","coordinates":[[[43.240733,11.48786],[43.117686,12.707913],[42.379459,12.465907],[42.923715,10.998787],[43.240733,11.48786]]]},"properties":{"id":"DJ","names":{"en":"Djibouti","ja":"ジブチ"}}},{"type":"Feature","geometry":{"type":"Polygon","coordinates":[[[43.117686,12.707913],[39.718272,15.263902],[38.601573,18.004828],[37.000459,17.072602],[36.52638,14.263523],[40.104559,14.465966],[42.379459,12.465907],[43.117686,12.707913]]]},"properties":{"id":"ER","names":{"en":"Eritrea","ja":"エリトリア"}}},{"type":"Feature","geometry":{"type":"Polygon","coordinates":[[[16.945043,48.604166],[13.815725,48.76643],[12.744834,47.66536],[9.547482,47.534547],[9.521155,47.262801],[9.581203,47.05687],[10.453811,46.864427],[13.700951,46.519746],[16.094035,46.862774],[17.148338,48.005443],[16.945043,48.604166]]]},"properties":{"id":"AT","names":{"en":"Austria","ja":"オーストリア"}}},{"type":"Feature","geometry":{"type":"Polygon","coordinates":[[[44.766135,37.14192],[42.357238,37.109984],[41.195656,34.768473],[38.774511,33.371685],[39.146375,32.118144],[42.075395,31.079861],[44.691825,29.201836],[46.532436,29.095745],[47.948009,29.994045],[48.531016,29.96133],[47.831323,31.761835],[45.485781,33.938653],[46.130393,35.131397],[44.766135,37.14192]]]},"properties":{"id":"IQ","names":{"en":"Iraq","ja":"イラク"}}},{"type":"Feature","geometry":{"type":"Polygon","coordinates":[[[7.022083,45.92526],[7.502289,43.792222],[8.76238,44.432115],[13.044607,41.227525],[15.610199,40.073188],[17.049571,40.51911],[12.368826,44.250678],[13.711762,45.593207],[13.700951,46.519746],[10.453811,46.864427],[7.022083,45.92526]],[[12.42945,43.892056],[12.421389,43.967219],[12.490325,43.939159],[12.42945,43.892056]],[[12.453137,41.902752],[12.453031,41.903915],[12.453983,41.903862],[12.454035,41.902752],[12.453137,41.902752]]]},"properties":{"id":"IT","names":{"en":"Italy","ja":"イタリア"}}},{"type":"Feature","geometry":{"type":"Polygon","coordinates":[[[10.453811,46.864427],[9.581203,47.05687],[9.484981,47.176346],[9.521155,47.262801],[9.547482,47.534547],[7.586028,47.584619],[7.022083,45.92526],[10.453811,46.864427]]]},"properties":{"id":"CH","names":{"en":"Switzerland","ja":"スイス"}}},{"type":"Feature","geometry":{"type":"Polygon","coordinates":[[[44.806993,39.639902],[44.766135,37.14192],[46.130393,35.131397],[45.485781,33.938653],[47.831323,31.761835],[48.531016,29.96133],[50.144867,29.938056],[51.380271,27.991418],[54.801524,26.498236],[56.353038,27.201606],[57.326182,25.777004],[61.588227,25.202094],[62.735684,27.994985],[60.844379,29.858179],[60.486778,34.094277],[61.269676,35.618499],[58.861037,37.668089],[57.038409,38.187283],[53.913748,37.34276],[51.909028,36.582709],[48.874278,38.434068],[46.514039,38.882176],[46.135871,38.863701],[44.806993,39.639902]]]},"properties":{"id":"IR","names":{"en":"Iran","ja":"イラン"}}},{"type":"Feature","geometry":{"type":"Polygon","coordinates":[[[7.194591,53.245022],[5.591563,53.302802],[4.261068,51.369379],[5.99491,50.749927],[7.194591,53.245022]]]},"properties":{"id":"NL","names":{"en":"Netherlands","ja":"オランダ"}}},{"type":"Feature","geometry":{"type":"Polygon","coordinates":[[[9.521155,47.262801],[9.484981,47.176346],[9.581203,47.05687],[9.521155,47.262801]]]},"properties":{"id":"LI","names":{"en":"Liechtenstein","ja":"リヒテンシュタイン"}}},{"type":"Feature","geometry":{"type":"Polygon","coordinates":[[[-7.989663,10.161991],[-8.485446,7.557989],[-7.540666,4.352845],[-2.843699,5.149115],[-3.262509,6.617142],[-2.689211,9.488724],[-5.522578,10.425489],[-7.989663,10.161991]]]},"properties":{"id":"CI","names":{"en":"Ivory Coast","ja":"コートジボワール"}}},{"type":"Feature","geometry":{"type":"Polygon","coordinates":[[[20.242826,46.108091],[18.901306,45.931203],[19.015821,44.865635],[19.195345,43.532796],[20.345352,42.827439],[21.564066,42.246289],[22.345023,42.313439],[22.69164,44.228435],[20.242826,46.108091]]]},"properties":{"id":"RS","names":{"en":"Republic of Serbia","ja":"セルビア"}}},{"type":"Feature","geometry":{"type":"Polygon","coordinates":[[[-12.26413,14.774939],[-11.388422,12.403895],[-8.993839,12.387514],[-7.989663,10.161991],[-5.522578,10.425489],[-3.984042,13.39647],[-0.752895,15.069727],[0.218467,14.910977],[3.507103,15.353973],[4.22861,19.142244],[-4.821613,24.995065],[-6.593107,24.994134],[-5.515964,15.494249],[-11.727057,15.541171],[-12.26413,14.774939]]]},"properties":{"id":"ML","names":{"en":"Mali","ja":"マリ"}}},{"type":"Feature","geometry":{"type":"Polygon","coordinates":[[[-12.26413,14.774939],[-14.343254,16.63666],[-16.542348,15.808824],[-16.561399,13.586914],[-15.518195,13.5831],[-15.833318,13.156847],[-16.753651,13.065009],[-16.728437,12.332531],[-13.728279,12.673388],[-11.388422,12.403895],[-12.26413,14.774939]]]},"properties":{"id":"SN","names":{"en":"Senegal","ja":"セネガル"}}},{"type":"Feature","geometry":{"type":"Polygon","coordinates":[[[3.5964,11.695773],[2.769164,9.057045],[2.703841,6.368352],[4.405528,6.358873],[6.09669,4.278144],[8.594168,4.815294],[10.119465,6.994406],[11.509767,6.612311],[13.98233,11.276264],[14.064908,13.077988],[13.607314,13.7041],[12.472706,13.064165],[6.906637,13.006856],[4.506732,13.694669],[3.5964,11.695773]]]},"properties":{"id":"NG","names":{"en":"Nigeria","ja":"ナイジェリア"}}},{"type":"Feature","geometry":{"type":"Polygon","coordinates":[[[3.5964,11.695773],[2.390169,11.896536],[0.901474,10.992741],[1.601173,9.049526],[1.61964,6.213894],[2.703841,6.368352],[2.769164,9.057045],[3.5964,11.695773]]]},"properties":{"id":"BJ","names":{"en":"Benin","ja":"ベナン"}}},{"type":"Feature","geometry":{"type":"MultiPolygon","coordinates":[[[[13.073703,-4.635323],[12.009608,-5.019631],[12.210541,-5.763442],[13.073703,-4.635323]]],[[[23.967457,-10.872307],[21.854097,-9.61781],[21.784954,-7.283379],[19.521836,-7.001949],[17.536531,-8.015117],[16.597364,-5.924702],[13.183849,-5.856459],[13.639822,-12.248712],[12.512706,-13.442071],[11.766124,-17.252699],[18.445726,-17.389273],[20.806202,-18.031405],[23.381652,-17.641144],[21.983805,-16.165886],[21.979878,-13.001479],[24.000633,-13.001479],[23.967457,-10.872307]]]]},"properties":{"id":"AO","names":{"en":"Angola","ja":"アンゴラ"}}},{"type":"Feature","geometry":{"type":"MultiPolygon","coordinates":[[[[16.515302,46.501711],[13.589529,45.488837],[17.580658,42.942084],[19.015821,44.865635],[18.901306,45.931203],[16.515302,46.501711]]],[[[18.437355,42.559212],[17.653331,42.890937],[18.49643,42.416327],[18.437355,42.559212]]]]},"properties":{"id":"HR","names":{"en":"Croatia","ja":"クロアチア"}}},{"type":"Feature","geometry":{"type":"Polygon","coordinates":[[[13.589529,45.488837],[16.515302,46.501711],[16.094035,46.862774],[13.700951,46.519746],[13.711762,45.593207],[13.589529,45.488837]]]},"properties":{"id":"SI","names":{"en":"Slovenia","ja":"スロベニア"}}},{"type":"Feature","geometry":{"type":"Polygon","coordinates":[[[50.807872,24.746649],[51.215258,24.62585],[51.616547,25.137193],[51.577485,25.880845],[51.047374,26.053046],[50.807872,24.746649]]]},"properties":{"id":"QA","names":{"en":"Qatar","ja":"カタール"}}},{"type":"Feature","geometry":{"type":"Polygon","coordinates":[[[50.807872,24.746649],[48.432781,28.54048],[46.532436,29.095745],[44.691825,29.201836],[42.075395,31.079861],[39.146375,32.118144],[37.981071,30.499483],[34.949385,29.351686],[35.051931,28.119574],[38.600175,23.568249],[39.08074,21.315009],[40.522634,19.97248],[42.78948,16.370958],[43.165044,17.32592],[46.970342,16.956847],[49.128815,18.612095],[51.978615,18.995638],[54.97838,19.995421],[55.186843,22.703577],[52.583074,22.931108],[51.569347,24.256171],[51.215258,24.62585],[50.807872,24.746649]]]},"properties":{"id":"SA","names":{"en":"Saudi Arabia","ja":"サウジアラビア"}}},{"type":"Feature","geometry":{"type":"Polygon","coordinates":[[[25.259781,-17.794107],[20.975081,-18.319346],[20.984796,-21.963981],[19.981447,-24.752493],[21.687182,-26.855207],[23.006998,-25.310805],[24.79862,-25.829223],[29.350074,-22.186707],[26.13027,-19.501082],[25.259781,-17.794107]]]},"properties":{"id":"BW","names":{"en":"Botswana","ja":"ボツワナ"}}},{"type":"Feature","geometry":{"type":"Polygon","coordinates":[[[25.259781,-17.794107],[26.13027,-19.501082],[29.350074,-22.186707],[31.288922,-22.39734],[33.032795,-19.784166],[32.893372,-16.712415],[30.396263,-15.635995],[29.186311,-15.812832],[27.048457,-17.944278],[25.259781,-17.794107]]]},"properties":{"id":"ZW","names":{"en":"Zimbabwe","ja":"ジンバブエ"}}},{"type":"Feature","geometry":{"type":"Polygon","coordinates":[[[76.777351,35.646112],[74.542354,37.021669],[71.170932,36.027001],[71.046702,34.041877],[64.086093,29.386605],[60.844379,29.858179],[62.735684,27.994985],[61.588227,25.202094],[66.437022,25.597724],[68.183035,23.842108],[71.063858,24.682577],[69.575577,27.188419],[71.860864,27.950207],[75.023668,32.466262],[73.962234,34.668169],[77.048971,35.110442],[76.777351,35.646112]]]},"properties":{"id":"PK","names":{"en":"Pakistan","ja":"パキスタン"}}},{"type":"Feature","geometry":{"type":"Polygon","coordinates":[[[26.333359,41.713036],[28.016775,41.972561],[28.57838,43.741278],[25.35962,43.654287],[22.69164,44.228435],[22.345023,42.313439],[22.916978,41.335773],[26.333359,41.713036]]]},"properties":{"id":"BG","names":{"en":"Bulgaria","ja":"ブルガリア"}}},{"type":"Feature","geometry":{"type":"Polygon","coordinates":[[[102.913585,11.645901],[103.085005,14.295821],[105.184308,14.34574],[105.650998,15.634602],[104.000039,18.318444],[102.078503,18.213799],[100.099295,20.317805],[97.839847,19.555319],[98.164995,15.125796],[99.630022,11.815766],[98.747406,10.350531],[98.598888,8.374905],[100.127289,6.442288],[102.07309,6.257514],[100.395518,7.21133],[99.24464,10.535142],[100.237153,13.477362],[102.913585,11.645901]]]},"properties":{"id":"TH","names":{"en":"Thailand","ja":"タイ"}}},{"type":"Feature","geometry":{"type":"Polygon","coordinates":[[[12.42945,43.892056],[12.490325,43.939159],[12.421389,43.967219],[12.42945,43.892056]]]},"properties":{"id":"SM","names":{"en":"San Marino","ja":"サンマリノ"}}},{"type":"Feature","geometry":{"type":"Polygon","coordinates":[[[-71.757436,19.71011],[-72.813547,19.052924],[-71.776235,18.039252],[-71.757436,19.71011]]]},"properties":{"id":"HT","names":{"en":"Haiti","ja":"ハイチ"}}},{"type":"Feature","geometry":{"type":"Polygon","coordinates":[[[-71.757436,19.71011],[-71.776235,18.039252],[-68.849599,18.374823],[-69.897939,19.635972],[-71.757436,19.71011]]]},"properties":{"id":"DO","names":{"en":"Dominican Republic","ja":"ドミニカ共和国"}}},{"type":"Feature","geometry":{"type":"Polygon","coordinates":[[[14.064908,13.077988],[15.065881,10.793115],[13.947603,9.637759],[15.481049,7.523263],[18.589283,8.047882],[22.861064,10.919154],[21.935126,13.059152],[23.984406,15.72116],[23.981306,19.496124],[15.985101,23.44472],[14.979909,22.995664],[15.736021,19.903541],[15.471954,16.916746],[13.607314,13.7041],[14.064908,13.077988]]]},"properties":{"id":"TD","names":{"en":"Chad","ja":"チャド"}}},{"type":"Feature","geometry":{"type":"Polygon","coordinates":[[[47.948009,29.994045],[46.532436,29.095745],[48.432781,28.54048],[47.948009,29.994045]]]},"properties":{"id":"KW","names":{"en":"Kuwait","ja":"クウェート"}}},{"type":"Feature","geometry":{"type":"Polygon","coordinates":[[[-90.098307,13.731404],[-87.817169,13.406562],[-89.361621,14.415478],[-90.098307,13.731404]]]},"properties":{"id":"SV","names":{"en":"El Salvador","ja":"エルサルバドル"}}},{"type":"Feature","geometry":{"type":"Polygon","coordinates":[[[-89.361621,14.415478],[-88.220937,15.725653],[-88.913971,15.893948],[-89.160496,17.814314],[-90.962221,17.81602],[-92.246257,14.546279],[-90.098307,13.731404],[-89.361621,14.415478]]]},"properties":{"id":"GT","names":{"en":"Guatemala","ja":"グアテマラ"}}},{"type":"Feature","geometry":{"type":"Polygon","coordinates":[[[124.919507,-8.962016],[125.061615,-9.485772],[127.009288,-8.67669],[126.967052,-8.309015],[125.144298,-8.631443],[124.919507,-8.962016]]]},"properties":{"id":"TL","names":{"en":"East Timor","ja":"東ティモール"}}},{"type":"Feature","geometry":{"type":"Polygon","coordinates":[[[114.9817,4.889065],[113.99879,4.601142],[114.586628,4.021435],[114.9817,4.889065]]]},"properties":{"id":"BN","names":{"en":"Brunei","ja":"ブルネイ"}}},{"type":"Feature","geometry":{"type":"Polygon","coordinates":[[[7.437454,43.743361],[7.406969,43.763506],[7.36575,43.72273],[7.437454,43.743361]]]},"properties":{"id":"MC","names":{"en":"Monaco","ja":"モナコ"}}},{"type":"Feature","geometry":{"type":"Polygon","coordinates":[[[-4.821613,24.995065],[4.22861,19.142244],[11.968861,23.517351],[9.401162,26.113394],[9.93591,27.866724],[9.519708,30.228905],[7.75072,33.207664],[8.60251,36.939511],[1.04477,36.486884],[-2.222564,35.089301],[-1.249557,32.08166],[-5.756156,29.614071],[-7.619453,29.389422],[-8.682385,27.661439],[-8.682385,27.285416],[-4.821613,24.995065]]]},"properties":{"id":"DZ","names":{"en":"Algeria","ja":"アルジェリア"}}},{"type":"Feature","geometry":{"type":"Polygon","coordinates":[[[32.113884,-26.840014],[32.893077,-26.846124],[32.872732,-25.543878],[35.106456,-24.597914],[35.496837,-22.141534],[34.757579,-19.869073],[40.573253,-15.504978],[40.43686,-10.474786],[37.427824,-11.722591],[34.964615,-11.573556],[33.202707,-14.013872],[30.396263,-15.635995],[32.893372,-16.712415],[33.032795,-19.784166],[31.288922,-22.39734],[31.949243,-25.958104],[32.113884,-26.840014]]]},"properties":{"id":"MZ","names":{"en":"Mozambique","ja":"モザンビーク"}}},{"type":"Feature","geometry":{"type":"Polygon","coordinates":[[[31.949243,-25.958104],[31.119836,-25.910045],[31.157043,-27.205573],[32.113884,-26.840014],[31.949243,-25.958104]]]},"properties":{"id":"SZ","names":{"en":"eSwatini","ja":"エスワティニ"}}},{"type":"Feature","geometry":{"type":"Polygon","coordinates":[[[30.5546,-2.400628],[29.015365,-2.720711],[29.404179,-4.449805],[30.5546,-2.400628]]]},"properties":{"id":"BI","names":{"en":"Burundi","ja":"ブルンジ"}}},{"type":"Feature","geometry":{"type":"Polygon","coordinates":[[[29.015365,-2.720711],[30.5546,-2.400628],[30.471786,-1.066837],[29.577915,-1.38839],[29.015365,-2.720711]]]},"properties":{"id":"RW","names":{"en":"Rwanda","ja":"ルワンダ"}}},{"type":"Feature","geometry":{"type":"Polygon","coordinates":[[[92.575879,21.977574],[92.265147,21.061103],[93.987315,19.386705],[95.396495,15.716376],[97.54835,16.538153],[98.691173,12.710435],[98.747406,10.350531],[99.630022,11.815766],[98.164995,15.125796],[97.839847,19.555319],[100.099295,20.317805],[101.159024,21.552691],[99.95026,21.721156],[98.503269,24.121268],[98.679279,27.577336],[97.323496,28.217478],[95.139546,26.029937],[92.575879,21.977574]]]},"properties":{"id":"MM","names":{"en":"Myanmar","ja":"ミャンマー"}}},{"type":"Feature","geometry":{"type":"Polygon","coordinates":[[[92.575879,21.977574],[92.001753,25.18296],[88.074396,25.908135],[89.060395,22.129869],[91.456309,22.784817],[92.265147,21.061103],[92.575879,21.977574]]]},"properties":{"id":"BD","names":{"en":"Bangladesh","ja":"バングラデシュ"}}},{"type":"Feature","geometry":{"type":"Polygon","coordinates":[[[1.707006,42.502781],[1.429297,42.595386],[1.447901,42.434646],[1.707006,42.502781]]]},"properties":{"id":"AD","names":{"en":"Andorra","ja":"アンドラ"}}},{"type":"Feature","geometry":{"type":"Polygon","coordinates":[[[74.542354,37.021669],[74.892307,37.231114],[71.61106,36.704841],[70.974045,38.473673],[67.780544,37.188868],[66.519588,37.36418],[64.76016,37.092621],[62.621066,35.222709],[61.269676,35.618499],[60.486778,34.094277],[60.844379,29.858179],[64.086093,29.386605],[71.046702,34.041877],[71.170932,36.027001],[74.542354,37.021669]]]},"properties":{"id":"AF","names":{"en":"Afghanistan","ja":"アフガニスタン"}}},{"type":"Feature","geometry":{"type":"Polygon","coordinates":[[[18.49643,42.416327],[19.365082,41.852362],[20.064956,42.546758],[20.345352,42.827439],[19.195345,43.532796],[18.437355,42.559212],[18.49643,42.416327]]]},"properties":{"id":"ME","names":{"en":"Montenegro","ja":"モンテネグロ"}}},{"type":"Feature","geometry":{"type":"Polygon","coordinates":[[[17.653331,42.890937],[18.437355,42.559212],[19.195345,43.532796],[19.015821,44.865635],[17.580658,42.942084],[17.653331,42.890937]]]},"properties":{"id":"BA","names":{"en":"Bosnia and Herzegovina","ja":"ボスニア・ヘルツェゴビナ"}}},{"type":"Feature","geometry":{"type":"Polygon","coordinates":[[[30.471786,-1.066837],[33.904214,-1.002573],[34.978671,1.675945],[33.977078,4.219692],[30.839543,3.490202],[31.242826,2.051168],[29.928281,0.785018],[29.577915,-1.38839],[30.471786,-1.066837]]]},"properties":{"id":"UG","names":{"en":"Uganda","ja":"ウガンダ"}}},{"type":"Feature","geometry":{"type":"Polygon","coordinates":[[[-75.095006,19.897226],[-75.137036,19.971551],[-75.164378,19.913719],[-75.095006,19.897226]]]},"properties":{"id":"XX-US-NAVAL-BASE-GUANTANAMO-BAY","names":{"en":"US Naval Base Guantanamo Bay"}}},{"type":"Feature","geometry":{"type":"Polygon","coordinates":[[[-75.095006,19.897226],[-75.578481,21.013373],[-82.033193,23.200507],[-81.824452,22.18891],[-78.76651,21.639716],[-78.065541,20.711656],[-75.232859,19.900051],[-75.160192,19.970648],[-75.137036,19.971551],[-75.095006,19.897226]]]},"properties":{"id":"CU","names":{"en":"Cuba","ja":"キューバ"}}},{"type":"Feature","geometry":{"type":"Polygon","coordinates":[[[-89.361621,14.415478],[-87.817169,13.406562],[-87.314036,12.981553],[-84.77017,14.805144],[-83.130444,14.997012],[-84.294638,15.81101],[-88.220937,15.725653],[-89.361621,14.415478]]]},"properties":{"id":"HN","names":{"en":"Honduras","ja":"ホンジュラス"}}},{"type":"Feature","geometry":{"type":"Polygon","coordinates":[[[-78.828684,1.434312],[-80.075836,0.816148],[-80.849517,-1.615818],[-80.340729,-3.393498],[-78.362938,-3.488727],[-75.560034,-1.502595],[-75.283488,-0.107021],[-78.828684,1.434312]]]},"properties":{"id":"EC","names":{"en":"Ecuador","ja":"エクアドル"}}},{"type":"Feature","geometry":{"type":"Polygon","coordinates":[[[-78.828684,1.434312],[-75.283488,-0.107021],[-72.943269,-2.419024],[-70.874196,-2.229579],[-69.96495,-4.236484],[-69.399454,-1.182717],[-69.848807,1.668892],[-66.875061,1.22251],[-67.631759,3.761865],[-67.573984,6.266234],[-72.080996,7.066598],[-72.907561,10.452464],[-71.327507,11.849998],[-74.844372,11.10967],[-77.373525,8.66474],[-77.895839,7.235098],[-77.343007,6.543769],[-77.751536,2.627265],[-78.828684,1.434312]]]},"properties":{"id":"CO","names":{"en":"Colombia","ja":"コロンビア"}}},{"type":"Feature","geometry":{"type":"Polygon","coordinates":[[[-62.650357,-22.234456],[-61.006349,-23.805471],[-57.754067,-25.180891],[-58.247939,-26.758159],[-55.754732,-27.443698],[-54.600203,-25.574945],[-55.89294,-22.306803],[-57.986818,-22.035295],[-58.158797,-20.165125],[-59.089541,-19.286729],[-61.761213,-19.657765],[-62.650357,-22.234456]]]},"properties":{"id":"PY","names":{"en":"Paraguay","ja":"パラグアイ"}}},{"type":"Feature","geometry":{"type":"Polygon","coordinates":[[[-57.642466,-30.193092],[-57.602793,-30.190517],[-57.611698,-30.182963],[-57.642466,-30.193092]]]},"properties":{"id":"XX-BRAZILIAN-ISLAND","names":{"en":"Brazilian Island"}}},{"type":"Feature","geometry":{"type":"Polygon","coordinates":[[[-7.414418,37.192816],[-7.145373,41.98749],[-8.750803,41.96898],[-9.491689,38.707587],[-7.414418,37.192816]]]},"properties":{"id":"PT","names":{"en":"Portugal","ja":"ポルトガル"}}},{"type":"Feature","geometry":{"type":"Polygon","coordinates":[[[26.617889,48.258968],[28.199498,45.461774],[29.540398,47.212546],[26.617889,48.258968]]]},"properties":{"id":"MD","names":{"en":"Moldova","ja":"モルドバ"}}},{"type":"Feature","geometry":{"type":"Polygon","coordinates":[[[61.269676,35.618499],[62.621066,35.222709],[64.76016,37.092621],[66.519588,37.36418],[60.414534,41.235262],[58.612267,42.780852],[55.978422,41.321717],[54.047171,42.345401],[52.437671,41.748876],[53.913748,37.34276],[57.038409,38.187283],[58.861037,37.668089],[61.269676,35.618499]]]},"properties":{"id":"TM","names":{"en":"Turkmenistan","ja":"トルクメニスタン"}}},{"type":"Feature","geometry":{"type":"Polygon","coordinates":[[[35.75759,32.744347],[35.560961,32.384717],[35.458125,31.491929],[34.955577,29.558987],[34.949385,29.351686],[37.981071,30.499483],[39.146375,32.118144],[38.774511,33.371685],[35.75759,32.744347]]]},"properties":{"id":"JO","names":{"en":"Jordan","ja":"ヨルダン"}}},{"type":"Feature","geometry":{"type":"Polygon","coordinates":[[[88.118218,27.860885],[85.080212,28.318789],[80.996017,30.196969],[80.036386,28.837026],[85.821614,26.571713],[88.118218,27.860885]]]},"properties":{"id":"NP","names":{"en":"Nepal","ja":"ネパール"}}},{"type":"Feature","geometry":{"type":"Polygon","coordinates":[[[28.980846,-28.909035],[27.24183,-29.548996],[28.054701,-30.649704],[28.980846,-28.909035]]]},"properties":{"id":"LS","names":{"en":"Lesotho","ja":"レソト"}}},{"type":"Feature","geometry":{"type":"Polygon","coordinates":[[[11.322078,2.16576],[13.294568,2.161058],[16.196665,2.236454],[14.523899,5.279679],[15.481049,7.523263],[13.947603,9.637759],[15.065881,10.793115],[14.064908,13.077988],[13.98233,11.276264],[11.509767,6.612311],[10.119465,6.994406],[8.594168,4.815294],[9.799571,2.341742],[11.322078,2.16576]]]},"properties":{"id":"CM","names":{"en":"Cameroon","ja":"カメルーン"}}},{"type":"Feature","geometry":{"type":"Polygon","coordinates":[[[13.294568,2.161058],[11.322078,2.16576],[9.804371,0.998354],[8.800304,-0.733657],[11.114016,-3.936856],[11.55824,-2.349365],[14.226966,-2.323113],[14.183868,1.380847],[13.294568,2.161058]]]},"properties":{"id":"GA","names":{"en":"Gabon","ja":"ガボン"}}},{"type":"Feature","geometry":{"type":"Polygon","coordinates":[[[3.5964,11.695773],[4.506732,13.694669],[6.906637,13.006856],[12.472706,13.064165],[13.607314,13.7041],[15.471954,16.916746],[15.736021,19.903541],[14.979909,22.995664],[11.968861,23.517351],[4.22861,19.142244],[3.507103,15.353973],[0.218467,14.910977],[2.390169,11.896536],[3.5964,11.695773]]]},"properties":{"id":"NE","names":{"en":"Niger","ja":"ニジェール"}}},{"type":"Feature","geometry":{"type":"Polygon","coordinates":[[[2.390169,11.896536],[0.218467,14.910977],[-0.752895,15.069727],[-3.984042,13.39647],[-5.522578,10.425489],[-2.689211,9.488724],[-2.750706,10.985842],[-0.166109,11.13498],[0.901474,10.992741],[2.390169,11.896536]]]},"properties":{"id":"BF","names":{"en":"Burkina Faso","ja":"ブルキナファソ"}}},{"type":"Feature","geometry":{"type":"Polygon","coordinates":[[[-0.166109,11.13498],[0.519275,6.832246],[1.185395,6.100491],[1.61964,6.213894],[1.601173,9.049526],[0.901474,10.992741],[-0.166109,11.13498]]]},"properties":{"id":"TG","names":{"en":"Togo","ja":"トーゴ"}}},{"type":"Feature","geometry":{"type":"Polygon","coordinates":[[[-0.166109,11.13498],[-2.750706,10.985842],[-2.689211,9.488724],[-3.262509,6.617142],[-2.843699,5.149115],[-3.115305,5.107815],[-3.119618,5.091335],[-2.090566,4.737128],[1.185395,6.100491],[0.519275,6.832246],[-0.166109,11.13498]]]},"properties":{"id":"GH","names":{"en":"Ghana","ja":"ガーナ"}}},{"type":"Feature","geometry":{"type":"Polygon","coordinates":[[[-13.728279,12.673388],[-16.728437,12.332531],[-15.020985,10.967475],[-13.728279,12.673388]]]},"properties":{"id":"GW","names":{"en":"Guinea-Bissau","ja":"ギニアビサウ"}}},{"type":"Feature","geometry":{"type":"Polygon","coordinates":[[[-5.358387,36.141109],[-5.35025,36.119289],[-5.338773,36.14112],[-5.358387,36.141109]]]},"properties":{"id":"GI","names":{"en":"Gibraltar"}}},{"type":"Feature","geometry":{"type":"MultiPolygon","coordinates":[[[[-122.753017,48.992515],[-124.42276,47.741889],[-123.898061,46.441636],[-124.547719,42.845445],[-124.36351,40.261481],[-120.472681,34.450273],[-118.544057,34.038886],[-117.125121,32.531669],[-114.822108,32.50024],[-111.006269,31.327185],[-106.517189,31.773824],[-103.147989,28.985105],[-101.409309,29.765781],[-99.085498,26.40764],[-97.139272,25.965806],[-96.945058,28.126451],[-93.199593,29.772811],[-90.229237,29.086656],[-88.927642,30.442206],[-85.307851,29.693427],[-83.680572,29.921291],[-81.086537,25.121405],[-80.038238,26.811184],[-81.499257,30.704332],[-80.887563,32.069403],[-76.503896,34.766547],[-75.98893,36.911959],[-73.634582,41.007055],[-70.631907,41.711127],[-70.815338,42.870266],[-67.176015,45.178656],[-67.805185,47.035631],[-69.267628,47.439844],[-71.50408,45.013739],[-74.712961,44.999254],[-76.841532,43.625504],[-82.424861,41.676811],[-82.532141,45.293516],[-84.87869,46.897914],[-88.347264,48.298655],[-91.427929,48.036449],[-95.177106,48.99267],[-122.753017,48.992515]]],[[[-141.005564,69.650946],[-149.344472,70.510077],[-151.454172,70.438951],[-156.817209,71.306342],[-161.90571,70.320624],[-164.346425,68.929389],[-163.688303,67.103217],[-165.766428,66.323635],[-166.189687,64.585191],[-162.607167,64.506781],[-166.102773,61.821112],[-163.614939,59.800849],[-162.341664,60.21898],[-160.352169,59.070659],[-157.502675,58.46369],[-158.483632,56.032375],[-153.438832,58.733588],[-148.278635,60.127265],[-146.753285,60.955024],[-143.918609,59.997016],[-139.657582,59.575507],[-136.598378,58.223049],[-134.497955,58.353949],[-131.943512,56.006903],[-130.019618,55.907952],[-131.799108,56.587658],[-135.482759,59.792475],[-137.611363,59.239331],[-141.001156,60.321074],[-141.005564,69.650946]]]]},"properties":{"id":"US","names":{"en":"United States of America","ja":"アメリカ合衆国"}}},{"type":"Feature","geometry":{"type":"MultiPolygon","coordinates":[[[[-122.753017,48.992515],[-95.177106,48.99267],[-91.427929,48.036449],[-88.347264,48.298655],[-84.87869,46.897914],[-82.532141,45.293516],[-82.424861,41.676811],[-76.841532,43.625504],[-74.712961,44.999254],[-71.353993,46.739],[-66.665924,50.134752],[-60.06371,50.253974],[-55.712066,52.090644],[-55.812082,53.330064],[-57.846995,54.738715],[-61.882232,56.234361],[-61.35912,57.089586],[-64.416168,60.223375],[-67.660024,58.26793],[-69.45165,58.902045],[-70.116322,61.056016],[-73.670725,62.482123],[-78.154897,62.297309],[-77.346181,60.060248],[-78.473704,58.72016],[-76.589345,57.271308],[-76.658681,56.072984],[-79.484486,54.756415],[-78.499582,52.355821],[-79.744537,51.123521],[-82.303456,53.032701],[-82.458485,55.141181],[-85.126617,55.302558],[-88.891184,56.861274],[-92.2235,57.02147],[-93.189524,58.759711],[-94.807444,59.018134],[-93.984975,61.457994],[-89.939809,64.168524],[-88.044301,64.184312],[-85.416073,66.566981],[-81.527415,66.996039],[-81.753041,69.26789],[-84.339833,69.859687],[-87.327789,67.173285],[-88.022613,68.808661],[-89.870961,68.481879],[-93.215566,71.469102],[-95.225168,71.94953],[-96.616444,70.825751],[-94.860992,68.03087],[-97.979644,68.547065],[-99.226674,67.714545],[-104.599436,68.094713],[-106.272125,68.906928],[-110.059641,68.005072],[-113.858754,67.696234],[-116.208119,68.831204],[-122.950999,69.838568],[-125.448842,69.319159],[-127.991526,70.592922],[-136.067616,68.885321],[-141.005564,69.650946],[-141.001156,60.321074],[-137.611363,59.239331],[-135.482759,59.792475],[-131.799108,56.587658],[-130.019618,55.907952],[-130.104726,53.947089],[-126.240346,50.863471],[-123.090506,48.992515],[-123.035308,48.992499],[-122.753017,48.992515]]],[[[-67.176015,45.178656],[-65.667714,43.500108],[-61.11974,45.213446],[-64.514027,46.239407],[-64.613393,49.123033],[-66.62206,49.122626],[-74.712961,44.999254],[-71.50408,45.013739],[-69.267628,47.439844],[-67.805185,47.035631],[-67.176015,45.178656]]],[[[-52.628814,47.526679],[-53.763173,47.625678],[-56.720204,51.319322],[-59.398834,47.880316],[-52.628814,47.526679]]],[[[-100.872182,69.807807],[-104.591176,71.073188],[-105.829335,73.051337],[-108.013336,73.354885],[-110.239898,72.527818],[-114.584299,73.384589],[-118.512847,72.510443],[-119.050893,71.626776],[-115.974843,69.300198],[-113.211741,68.504462],[-106.203969,69.149888],[-103.383168,68.782294],[-100.872182,69.807807]]],[[[-72.948964,66.734565],[-74.502919,65.343492],[-71.688466,63.173774],[-66.274485,61.8581],[-63.638743,64.924262],[-61.576283,66.550482],[-65.025014,68.057196],[-67.664133,68.564683],[-68.362253,70.584296],[-73.030507,71.232611],[-75.198354,72.497626],[-80.049021,72.397895],[-81.528391,73.716213],[-87.764475,73.716742],[-89.955556,72.312323],[-87.852528,70.237982],[-85.782908,69.995185],[-77.682566,70.183661],[-73.638905,68.262641],[-72.948964,66.734565]]],[[[-115.323638,73.508694],[-118.065989,74.280707],[-124.086822,74.404039],[-125.060658,72.565619],[-123.099924,71.084621],[-120.635243,71.491441],[-119.163889,72.629828],[-115.323638,73.508694]]],[[[-80.183339,63.767564],[-85.938935,65.763198],[-85.273915,63.123358],[-83.539418,64.110745],[-80.183339,63.767564]]],[[[-96.32127,72.466864],[-97.260357,73.861233],[-100.968161,73.812486],[-99.235088,71.349595],[-96.32127,72.466864]]],[[[-90.291005,73.923285],[-95.248647,74.009914],[-95.145253,71.965888],[-91.857655,72.847968],[-90.291005,73.923285]]],[[[-105.395131,75.674262],[-109.02538,75.498725],[-114.205922,76.471015],[-113.693023,74.444485],[-105.395131,75.674262]]],[[[-79.56017,74.991523],[-81.113149,75.77912],[-88.180979,75.492377],[-91.44107,76.693671],[-92.018463,74.777493],[-87.643625,74.458319],[-80.193593,74.609849],[-79.56017,74.991523]]],[[[-96.623118,80.044338],[-92.004384,78.212877],[-89.049957,78.181708],[-86.503896,79.068671],[-87.700551,80.412584],[-94.188466,81.366645],[-96.623118,80.044338]]],[[[-61.085479,82.331163],[-63.447092,82.826728],[-72.591624,83.102362],[-81.473948,82.830308],[-89.514312,81.487535],[-86.503936,80.309068],[-87.192047,77.904527],[-89.170196,76.42418],[-84.410186,76.309272],[-77.827789,76.640977],[-77.880523,77.942735],[-75.107696,78.375474],[-74.696116,79.450019],[-71.142405,79.789496],[-68.65331,80.676134],[-61.085479,82.331163]]]]},"properties":{"id":"CA","names":{"en":"Canada","ja":"カナダ"}}},{"type":"Feature","geometry":{"type":"Polygon","coordinates":[[[-97.139272,25.965806],[-99.085498,26.40764],[-101.409309,29.765781],[-103.147989,28.985105],[-106.517189,31.773824],[-111.006269,31.327185],[-114.822108,32.50024],[-117.125121,32.531669],[-115.697564,29.755826],[-114.042592,28.458441],[-114.487542,27.238098],[-111.560055,26.695653],[-114.660302,30.183252],[-113.128841,30.81244],[-112.150725,28.962978],[-109.255727,26.497992],[-105.80016,22.638454],[-105.698681,20.406911],[-103.4984,18.333483],[-96.556038,15.659025],[-94.852081,16.4289],[-92.246257,14.546279],[-90.962221,17.81602],[-89.160496,17.814314],[-88.303822,18.48135],[-86.741567,21.16413],[-90.360097,21.000393],[-90.730092,19.375922],[-94.580881,18.189846],[-95.85204,18.716783],[-97.889394,22.625434],[-97.139272,25.965806]]]},"properties":{"id":"MX","names":{"en":"Mexico","ja":"メキシコ"}}},{"type":"Feature","geometry":{"type":"Polygon","coordinates":[[[-89.160496,17.814314],[-88.913971,15.893948],[-88.303822,18.48135],[-89.160496,17.814314]]]},"properties":{"id":"BZ","names":{"en":"Belize","ja":"ベリーズ"}}},{"type":"Feature","geometry":{"type":"Polygon","coordinates":[[[-82.573598,9.576199],[-82.897629,8.034748],[-78.757639,8.82925],[-77.895839,7.235098],[-77.373525,8.66474],[-79.550969,9.629292],[-82.573598,9.576199]]]},"properties":{"id":"PA","names":{"en":"Panama","ja":"パナマ"}}},{"type":"Feature","geometry":{"type":"Polygon","coordinates":[[[-60.020985,8.55801],[-62.831125,10.406806],[-67.941233,10.466457],[-68.863189,11.452867],[-71.327507,11.849998],[-72.907561,10.452464],[-72.080996,7.066598],[-67.573984,6.266234],[-67.631759,3.761865],[-66.875061,1.22251],[-64.080864,1.647394],[-64.063811,3.911597],[-61.542104,4.263023],[-60.739854,5.202138],[-61.379608,5.9053],[-60.020985,8.55801]]]},"properties":{"id":"VE","names":{"en":"Venezuela","ja":"ベネズエラ"}}},{"type":"Feature","geometry":{"type":"Polygon","coordinates":[[[140.974457,-2.600518],[140.97698,-9.106134],[142.652599,-9.330255],[144.431326,-7.612237],[148.114024,-8.055352],[147.449067,-5.961602],[145.727387,-5.422459],[144.513438,-3.81756],[140.974457,-2.600518]]]},"properties":{"id":"PG","names":{"en":"Papua New Guinea","ja":"パプアニューギニア"}}},{"type":"Feature","geometry":{"type":"Polygon","coordinates":[[[34.886729,29.490058],[34.248351,31.211449],[34.200269,31.314267],[31.097423,31.607896],[29.028087,30.827053],[25.15089,31.65648],[24.981245,21.995351],[33.181136,21.995409],[34.084179,21.995454],[36.883637,21.995714],[35.621087,23.139293],[34.014008,26.61164],[34.886729,29.490058]]]},"properties":{"id":"EG","names":{"en":"Egypt","ja":"エジプト"}}},{"type":"Feature","geometry":{"type":"Polygon","coordinates":[[[51.978615,18.995638],[49.128815,18.612095],[46.970342,16.956847],[43.165044,17.32592],[42.78948,16.370958],[43.248871,13.212714],[44.191173,12.619127],[52.228363,15.616116],[53.090343,16.642401],[51.978615,18.995638]]]},"properties":{"id":"YE","names":{"en":"Yemen","ja":"イエメン"}}},{"type":"Feature","geometry":{"type":"Polygon","coordinates":[[[-8.682385,27.285416],[-8.707216,25.995004],[-12.015308,25.9949],[-12.015308,23.495182],[-13.015247,21.333428],[-17.056874,20.766913],[-16.024159,17.96015],[-16.542348,15.808824],[-14.343254,16.63666],[-12.26413,14.774939],[-11.727057,15.541171],[-5.515964,15.494249],[-6.593107,24.994134],[-4.821613,24.995065],[-8.682385,27.285416]]]},"properties":{"id":"MR","names":{"en":"Mauritania","ja":"モーリタニア"}}},{"type":"Feature","geometry":{"type":"Polygon","coordinates":[[[9.799571,2.341742],[9.804371,0.998354],[11.322078,2.16576],[9.799571,2.341742]]]},"properties":{"id":"GQ","names":{"en":"Equatorial Guinea","ja":"赤道ギニア"}}},{"type":"Feature","geometry":{"type":"Polygon","coordinates":[[[-16.753651,13.065009],[-15.833318,13.156847],[-15.518195,13.5831],[-16.561399,13.586914],[-16.753651,13.065009]]]},"properties":{"id":"GM","names":{"en":"Gambia","ja":"ガンビア"}}},{"type":"Feature","geometry":{"type":"Polygon","coordinates":[[[114.229828,22.555813],[114.082367,22.529364],[114.111013,22.365953],[114.278331,22.270453],[114.338064,22.446357],[114.229828,22.555813]]]},"properties":{"id":"HK","names":{"en":"Hong Kong S.A.R.","ja":"香港特別行政区"}}},{"type":"Feature","geometry":{"type":"Polygon","coordinates":[[[12.453137,41.902752],[12.454035,41.902752],[12.453983,41.903862],[12.453031,41.903915],[12.453137,41.902752]]]},"properties":{"id":"VA","names":{"en":"Vatican","ja":"バチカン"}}},{"type":"Feature","geometry":{"type":"Polygon","coordinates":[[[34.012289,35.063795],[32.711388,35.181632],[33.679435,35.033899],[33.906505,35.069105],[34.012289,35.063795]]]},"properties":{"id":"XX-NORTHERN-CYPRUS","names":{"en":"Northern Cyprus"}}},{"type":"Feature","geometry":{"type":"MultiPolygon","coordinates":[[[[33.906505,35.069105],[33.898116,35.061272],[34.021961,35.057009],[34.012289,35.063795],[33.906505,35.069105]]],[[[33.679435,35.033899],[32.711388,35.181632],[32.691549,35.183705],[33.702935,34.987943],[33.679435,35.033899]]],[[[32.640694,35.187077],[32.601899,35.178616],[32.584809,35.172512],[32.659813,35.187082],[32.640694,35.187077]]]]},"properties":{"id":"XX-CYPRUS-NO-MANS-AREA","names":{"en":"Cyprus No Mans Area"}}},{"type":"Feature","geometry":{"type":"Polygon","coordinates":[[[77.048971,35.110442],[77.800346,35.495406],[76.777351,35.646112],[77.048971,35.110442]]]},"properties":{"id":"XX-SIACHEN-GLACIER","names":{"en":"Siachen Glacier"}}},{"type":"Feature","geometry":{"type":"Polygon","coordinates":[[[63.383914,45.565824],[63.754899,46.296658],[62.812527,46.061427],[63.383914,45.565824]]]},"properties":{"id":"XX-BAYKONUR-COSMODROME","names":{"en":"Baykonur Cosmodrome"}}},{"type":"Feature","geometry":{"type":"Polygon","coordinates":[[[33.015635,34.634425],[32.832294,34.700948],[32.760671,34.653225],[33.015635,34.634425]]]},"properties":{"id":"XX-AKROTIRI-SOVEREIGN-BASE-AREA","names":{"en":"Akrotiri Sovereign Base Area"}}},{"type":"Feature","geometry":{"type":"Polygon","coordinates":[[[-73.465098,-49.759959],[-73.098247,-49.272754],[-73.457863,-49.307687],[-73.465098,-49.759959]]]},"properties":{"id":"XX-SOUTHERN-PATAGONIAN-ICE-FIELD","names":{"en":"Southern Patagonian Ice Field"}}},{"type":"Feature","geometry":{"type":"Polygon","coordinates":[[[33.181136,21.995409],[33.558442,21.710957],[33.866456,21.749724],[34.084179,21.995454],[33.181136,21.995409]]]},"properties":{"id":"XX-BIR-TAWIL","names":{"en":"Bir Tawil"}}},{"type":"Feature","geometry":{"type":"MultiPolygon","coordinates":[[[[131.535899,-31.605564],[133.682384,-32.122654],[135.604015,-34.880141],[137.224864,-33.653253],[139.475434,-35.896417],[139.794932,-37.268731],[143.536957,-38.858331],[144.982677,-37.899347],[146.878591,-38.644301],[149.985362,-37.495864],[150.163422,-35.956638],[152.52156,-32.427494],[153.605968,-28.867446],[152.893809,-25.688165],[150.826427,-22.697931],[149.608572,-22.244317],[148.566661,-20.059991],[146.446544,-19.059747],[145.27711,-14.947035],[143.951996,-14.498956],[143.43393,-12.613051],[141.665701,-12.441095],[140.833263,-17.450779],[136.767914,-15.900811],[135.391287,-14.739923],[135.07016,-12.259942],[133.141124,-11.674574],[131.000173,-12.171319],[129.358084,-14.408787],[126.952891,-13.723565],[125.658051,-14.360284],[120.238292,-19.906834],[116.743175,-20.616876],[114.011485,-21.859959],[113.385265,-24.249119],[114.166026,-28.106703],[115.680349,-31.648614],[116.465099,-35.000665],[120.002208,-33.926039],[123.566661,-33.884373],[126.18572,-32.232517],[131.535899,-31.605564]]],[[[147.998546,-43.230401],[148.331391,-41.002211],[144.68922,-40.704522],[146.030772,-43.48268],[147.998546,-43.230401]]]]},"properties":{"id":"AU","names":{"en":"Australia","ja":"オーストラリア"}}},{"type":"Feature","geometry":{"type":"Polygon","coordinates":[[[-40.875803,65.096503],[-34.653961,66.371405],[-33.05427,67.685289],[-25.625478,68.875881],[-21.637522,70.445258],[-21.818756,71.49018],[-25.522776,72.840237],[-19.427235,75.225531],[-20.962148,77.970364],[-17.872874,80.161119],[-19.851186,81.542914],[-25.221425,83.167873],[-32.490712,83.634101],[-37.585439,83.508043],[-39.437611,82.961819],[-45.153798,83.16234],[-45.156077,81.789862],[-49.011342,82.454535],[-50.890696,81.878119],[-54.440745,82.372707],[-61.281077,81.815131],[-65.994496,79.11994],[-72.590199,78.521226],[-70.521108,76.787177],[-68.432525,76.079413],[-63.476918,76.376899],[-58.395172,75.556627],[-55.670155,73.885321],[-55.514475,71.449164],[-53.265981,71.709906],[-50.501454,70.040473],[-51.148834,68.56391],[-53.873036,67.319322],[-49.103342,61.491523],[-46.003041,61.059312],[-44.898183,60.145209],[-42.826283,60.611274],[-42.319447,62.816962],[-40.562489,63.684882],[-40.875803,65.096503]]]},"properties":{"id":"GL","names":{"en":"Greenland","ja":"グリーンランド"}}},{"type":"Feature","geometry":{"type":"Polygon","coordinates":[[[178.711436,-17.991957],[178.262706,-17.335626],[177.388927,-17.640558],[178.168305,-18.248468],[178.711436,-17.991957]]]},"properties":{"id":"FJ","names":{"en":"Fiji","ja":"フィジー"}}},{"type":"Feature","geometry":{"type":"MultiPolygon","coordinates":[[[[172.748694,-43.279694],[174.197927,-41.876072],[172.641449,-40.509698],[171.122813,-42.59238],[166.489757,-45.80755],[168.591482,-46.614353],[170.70045,-45.90781],[172.748694,-43.279694]]],[[[176.953712,-39.607513],[175.997244,-37.631768],[174.578868,-38.839451],[175.330333,-41.609796],[176.953712,-39.607513]]]]},"properties":{"id":"NZ","names":{"en":"New Zealand","ja":"ニュージーランド"}}},{"type":"Feature","geometry":{"type":"Polygon","coordinates":[[[167.034434,-22.237481],[164.495616,-20.300226],[164.365571,-20.758071],[166.236176,-22.151788],[167.034434,-22.237481]]]},"properties":{"id":"NC","names":{"en":"New Caledonia","ja":"ニューカレドニア"}}},{"type":"Feature","geometry":{"type":"Polygon","coordinates":[[[44.254731,-20.376072],[43.222911,-22.254815],[43.656261,-24.185317],[45.492198,-25.573663],[47.137462,-24.909275],[50.503917,-15.316176],[49.864268,-12.880466],[43.943126,-17.455743],[44.254731,-20.376072]]]},"properties":{"id":"MG","names":{"en":"Madagascar","ja":"マダガスカル"}}},{"type":"Feature","geometry":{"type":"MultiPolygon","coordinates":[[[[126.569184,7.301093],[124.780772,8.949123],[123.965505,6.821275],[125.181163,5.798326],[126.569184,7.301093]]],[[[122.297211,18.403876],[120.611095,18.53856],[119.901866,16.2508],[121.379161,15.308173],[122.297211,18.403876]]]]},"properties":{"id":"PH","names":{"en":"Philippines","ja":"フィリピン"}}},{"type":"Feature","geometry":{"type":"Polygon","coordinates":[[[81.875987,7.091946],[81.365733,8.482164],[79.763845,7.990139],[80.10377,6.127143],[81.875987,7.091946]]]},"properties":{"id":"LK","names":{"en":"Sri Lanka","ja":"スリランカ"}}},{"type":"Feature","geometry":{"type":"Polygon","coordinates":[[[-68.780751,12.097805],[-68.835276,12.171047],[-69.164296,12.306952],[-68.944732,12.105618],[-68.780751,12.097805]]]},"properties":{"id":"CW","names":{"en":"Curaçao"}}},{"type":"Feature","geometry":{"type":"Polygon","coordinates":[[[-69.996938,12.577582],[-70.058095,12.537177],[-69.888092,12.41767],[-69.880198,12.453559],[-69.996938,12.577582]]]},"properties":{"id":"AW","names":{"en":"Aruba"}}},{"type":"Feature","geometry":{"type":"Polygon","coordinates":[[[-77.812367,26.906806],[-77.517486,26.8522],[-77.312164,26.594672],[-77.160715,26.564195],[-77.256418,26.203925],[-77.01476,26.31566],[-77.058827,26.529364],[-77.269887,26.625067],[-77.511301,26.869534],[-77.812367,26.906806]]]},"properties":{"id":"BS","names":{"en":"The Bahamas","ja":"バハマ"}}},{"type":"Feature","geometry":{"type":"Polygon","coordinates":[[[-71.802846,21.787909],[-71.741119,21.794908],[-71.63093,21.774319],[-71.678782,21.841864],[-71.809397,21.839993],[-71.802846,21.787909]]]},"properties":{"id":"TC","names":{"en":"Turks and Caicos Islands"}}},{"type":"Feature","geometry":{"type":"Polygon","coordinates":[[[121.905772,24.9501],[121.059337,25.050238],[120.059418,23.151028],[121.400076,23.145494],[121.905772,24.9501]]]},"properties":{"id":"TW","names":{"en":"Taiwan","ja":"台湾"}}},{"type":"Feature","geometry":{"type":"MultiPolygon","coordinates":[[[[133.422211,34.445014],[135.765571,33.481545],[137.427557,34.667746],[139.867686,35.013332],[142.069347,39.540473],[140.296641,40.873765],[139.432384,38.169135],[136.760555,36.870599],[133.422211,34.445014]]],[[[145.767426,43.387274],[141.919444,45.515855],[141.440115,43.361721],[143.638845,42.661078],[145.767426,43.387274]]]]},"properties":{"id":"JP","names":{"en":"Japan","ja":"日本"}}},{"type":"Feature","geometry":{"type":"Polygon","coordinates":[[[-56.273793,46.895453],[-56.31371,46.975653],[-56.253326,47.053697],[-56.395904,47.113593],[-56.336781,46.95425],[-56.273793,46.895453]]]},"properties":{"id":"PM","names":{"en":"Saint Pierre and Miquelon"}}},{"type":"Feature","geometry":{"type":"Polygon","coordinates":[[[-14.563629,66.384508],[-20.500885,65.49494],[-22.040679,64.051093],[-18.732045,63.396715],[-14.544911,64.405097],[-14.563629,66.384508]]]},"properties":{"id":"IS","names":{"en":"Iceland","ja":"アイスランド"}}},{"type":"Feature","geometry":{"type":"Polygon","coordinates":[[[-128.33019,-24.324314],[-128.35025,-24.341241],[-128.320668,-24.400649],[-128.290151,-24.39837],[-128.3037,-24.334649],[-128.33019,-24.324314]]]},"properties":{"id":"PN","names":{"en":"Pitcairn Islands"}}},{"type":"Feature","geometry":{"type":"Polygon","coordinates":[[[-149.183461,-17.731215],[-149.354115,-17.540134],[-149.604319,-17.525811],[-149.587514,-17.731215],[-149.183461,-17.731215]]]},"properties":{"id":"PF","names":{"en":"French Polynesia"}}},{"type":"Feature","geometry":{"type":"Polygon","coordinates":[[[70.548839,-49.183201],[68.901703,-49.431085],[70.12322,-49.713556],[70.548839,-49.183201]]]},"properties":{"id":"TF","names":{"en":"French Southern and Antarctic Lands"}}},{"type":"Feature","geometry":{"type":"Polygon","coordinates":[[[55.401702,-4.660534],[55.448979,-4.677853],[55.516852,-4.750407],[55.528555,-4.680193],[55.458846,-4.618115],[55.401702,-4.660534]]]},"properties":{"id":"SC","names":{"en":"Seychelles","ja":"セーシェル"}}},{"type":"Feature","geometry":{"type":"Polygon","coordinates":[[[-157.190989,1.763902],[-157.382069,1.902167],[-157.448964,1.800238],[-157.190989,1.763902]]]},"properties":{"id":"KI","names":{"en":"Kiribati","ja":"キリバス"}}},{"type":"Feature","geometry":{"type":"Polygon","coordinates":[[[171.393565,7.109931],[171.22641,7.075751],[171.263194,7.067694],[171.293468,7.083686],[171.366873,7.094468],[171.393565,7.109931]]]},"properties":{"id":"MH","names":{"en":"Marshall Islands","ja":"マーシャル諸島"}}},{"type":"Feature","geometry":{"type":"Polygon","coordinates":[[[-61.002268,10.699368],[-61.602122,10.747748],[-61.458363,10.302191],[-60.996002,10.138251],[-61.002268,10.699368]]]},"properties":{"id":"TT","names":{"en":"Trinidad and Tobago","ja":"トリニダード・トバゴ"}}},{"type":"Feature","geometry":{"type":"Polygon","coordinates":[[[-61.612945,12.214423],[-61.671457,12.23607],[-61.756418,12.087836],[-61.61384,12.08039],[-61.612945,12.214423]]]},"properties":{"id":"GD","names":{"en":"Grenada","ja":"グレナダ"}}},{"type":"Feature","geometry":{"type":"Polygon","coordinates":[[[-61.167348,13.146064],[-61.123931,13.308254],[-61.212026,13.368883],[-61.271352,13.18651],[-61.167348,13.146064]]]},"properties":{"id":"VC","names":{"en":"Saint Vincent and the Grenadines","ja":"セントビンセントおよびグレナディーン諸島"}}},{"type":"Feature","geometry":{"type":"Polygon","coordinates":[[[-59.42691,13.160386],[-59.654205,13.295111],[-59.608144,13.084662],[-59.42691,13.160386]]]},"properties":{"id":"BB","names":{"en":"Barbados","ja":"バルバドス"}}},{"type":"Feature","geometry":{"type":"Polygon","coordinates":[[[-60.88679,14.010077],[-61.059478,13.93122],[-61.078114,13.806301],[-60.940785,13.722113],[-60.88679,14.010077]]]},"properties":{"id":"LC","names":{"en":"Saint Lucia","ja":"セントルシア"}}},{"type":"Feature","geometry":{"type":"Polygon","coordinates":[[[-61.362864,15.201809],[-61.307688,15.57925],[-61.488922,15.535712],[-61.362864,15.201809]]]},"properties":{"id":"DM","names":{"en":"Dominica","ja":"ドミニカ国"}}},{"type":"Feature","geometry":{"type":"Polygon","coordinates":[[[166.619395,19.281643],[166.644216,19.27558],[166.638194,19.286444],[166.619395,19.281643]]]},"properties":{"id":"UM","names":{"en":"United States Minor Outlying Islands"}}},{"type":"Feature","geometry":{"type":"Polygon","coordinates":[[[-62.147369,16.744289],[-62.202016,16.819322],[-62.230133,16.727607],[-62.147369,16.744289]]]},"properties":{"id":"MS","names":{"en":"Montserrat"}}},{"type":"Feature","geometry":{"type":"Polygon","coordinates":[[[-61.883616,17.049018],[-61.729644,17.001166],[-61.714833,17.093085],[-61.825266,17.168769],[-61.883616,17.049018]]]},"properties":{"id":"AG","names":{"en":"Antigua and Barbuda","ja":"アンティグア・バーブーダ"}}},{"type":"Feature","geometry":{"type":"Polygon","coordinates":[[[-62.650461,17.265611],[-62.71996,17.358547],[-62.819569,17.415839],[-62.861073,17.362291],[-62.650461,17.265611]]]},"properties":{"id":"KN","names":{"en":"Saint Kitts and Nevis","ja":"セントクリストファー・ネーヴィス"}}},{"type":"Feature","geometry":{"type":"Polygon","coordinates":[[[-64.559397,17.751614],[-64.771637,17.792629],[-64.876373,17.689114],[-64.559397,17.751614]]]},"properties":{"id":"VI","names":{"en":"United States Virgin Islands"}}},{"type":"Feature","geometry":{"type":"Polygon","coordinates":[[[-62.838857,17.881985],[-62.791656,17.915473],[-62.857411,17.925035],[-62.838857,17.881985]]]},"properties":{"id":"BL","names":{"en":"Saint Barthelemy"}}},{"type":"Feature","geometry":{"type":"Polygon","coordinates":[[[-65.628814,18.279202],[-67.101715,18.522773],[-67.214771,17.966335],[-66.163238,17.929145],[-65.628814,18.279202]]]},"properties":{"id":"PR","names":{"en":"Puerto Rico","ja":"プエルトリコ"}}},{"type":"Feature","geometry":{"type":"Polygon","coordinates":[[[-63.007395,18.273017],[-63.038197,18.267727],[-63.085846,18.217719],[-63.011545,18.220445],[-63.007395,18.273017]]]},"properties":{"id":"AI","names":{"en":"Anguilla"}}},{"type":"Feature","geometry":{"type":"Polygon","coordinates":[[[-64.635121,18.405504],[-64.583323,18.416327],[-64.560161,18.454103],[-64.661821,18.440416],[-64.635121,18.405504]]]},"properties":{"id":"VG","names":{"en":"British Virgin Islands"}}},{"type":"Feature","geometry":{"type":"Polygon","coordinates":[[[-76.263743,18.012356],[-76.894919,18.409251],[-77.902333,18.518785],[-78.075185,18.198432],[-77.216054,17.716702],[-76.263743,18.012356]]]},"properties":{"id":"JM","names":{"en":"Jamaica","ja":"ジャマイカ"}}},{"type":"Feature","geometry":{"type":"Polygon","coordinates":[[[-81.136098,19.354885],[-81.286285,19.368476],[-81.303498,19.309055],[-81.1351,19.290742],[-81.136098,19.354885]]]},"properties":{"id":"KY","names":{"en":"Cayman Islands"}}},{"type":"Feature","geometry":{"type":"Polygon","coordinates":[[[-64.676096,32.388658],[-64.736387,32.34381],[-64.754872,32.293118],[-64.698404,32.326369],[-64.708094,32.351562],[-64.676096,32.388658]]]},"properties":{"id":"BM","names":{"en":"Bermuda","ja":"バミューダ諸島"}}},{"type":"Feature","geometry":{"type":"Polygon","coordinates":[[[73.735118,-53.1124],[73.632579,-53.044122],[73.361095,-53.00921],[73.404145,-53.139337],[73.580821,-53.187595],[73.735118,-53.1124]]]},"properties":{"id":"HM","names":{"en":"Heard Island and McDonald Islands"}}},{"type":"Feature","geometry":{"type":"Polygon","coordinates":[[[-5.721832,-15.908949],[-5.763743,-16.01572],[-5.66275,-15.979587],[-5.721832,-15.908949]]]},"properties":{"id":"SH","names":{"en":"Saint Helena"}}},{"type":"Feature","geometry":{"type":"Polygon","coordinates":[[[57.795746,-20.222752],[57.532481,-20.024835],[57.357758,-20.427423],[57.672211,-20.479669],[57.795746,-20.222752]]]},"properties":{"id":"MU","names":{"en":"Mauritius","ja":"モーリシャス"}}},{"type":"Feature","geometry":{"type":"Polygon","coordinates":[[[43.466563,-11.82171],[43.276541,-11.379571],[43.262869,-11.818048],[43.466563,-11.82171]]]},"properties":{"id":"KM","names":{"en":"Comoros","ja":"コモロ"}}},{"type":"Feature","geometry":{"type":"Polygon","coordinates":[[[6.681407,0.407131],[6.461681,0.222154],[6.516368,0.033637],[6.740082,0.218573],[6.681407,0.407131]]]},"properties":{"id":"ST","names":{"en":"São Tomé and Principe","ja":"サントメ・プリンシペ"}}},{"type":"Feature","geometry":{"type":"Polygon","coordinates":[[[-23.456776,15.023668],[-23.697336,15.266018],[-23.785756,15.174506],[-23.676503,14.935533],[-23.456776,15.023668]]]},"properties":{"id":"CV","names":{"en":"Cabo Verde","ja":"カーボベルデ"}}},{"type":"Feature","geometry":{"type":"Polygon","coordinates":[[[14.548025,35.890041],[14.428477,35.965725],[14.342621,35.880683],[14.527517,35.801215],[14.548025,35.890041]]]},"properties":{"id":"MT","names":{"en":"Malta","ja":"マルタ"}}},{"type":"Feature","geometry":{"type":"Polygon","coordinates":[[[-2.082672,49.26024],[-2.242014,49.247952],[-2.024526,49.171332],[-2.082672,49.26024]]]},"properties":{"id":"JE","names":{"en":"Jersey"}}},{"type":"Feature","geometry":{"type":"Polygon","coordinates":[[[-2.58023,49.493598],[-2.669342,49.430894],[-2.534088,49.436225],[-2.58023,49.493598]]]},"properties":{"id":"GG","names":{"en":"Guernsey"}}},{"type":"Feature","geometry":{"type":"Polygon","coordinates":[[[-4.612131,54.056952],[-4.31192,54.287177],[-4.367787,54.419013],[-4.710276,54.220649],[-4.612131,54.056952]]]},"properties":{"id":"IM","names":{"en":"Isle of Man"}}},{"type":"Feature","geometry":{"type":"Polygon","coordinates":[[[20.208751,60.224677],[20.093028,60.355129],[19.792003,60.200141],[19.948985,60.083889],[20.020763,60.210354],[20.208751,60.224677]]]},"properties":{"id":"AX","names":{"en":"Aland"}}},{"type":"Feature","geometry":{"type":"Polygon","coordinates":[[[-7.222646,62.1706],[-7.030873,62.116604],[-6.734486,61.938218],[-6.715566,62.034003],[-6.856068,62.147895],[-7.190256,62.309801],[-7.222646,62.1706]]]},"properties":{"id":"FO","names":{"en":"Faroe Islands"}}},{"type":"Feature","geometry":{"type":"Polygon","coordinates":[[[105.704112,-10.430841],[105.628184,-10.508966],[105.697927,-10.528985],[105.704112,-10.430841]]]},"properties":{"id":"XX-INDIAN-OCEAN-TERRITORIES","names":{"en":"Indian Ocean Territories"}}},{"type":"Feature","geometry":{"type":"Polygon","coordinates":[[[72.46754,-7.383884],[72.432872,-7.425388],[72.438975,-7.340265],[72.432872,-7.316095],[72.370942,-7.270196],[72.379242,-7.296808],[72.426036,-7.322931],[72.432872,-7.346775],[72.426931,-7.403985],[72.432872,-7.432224],[72.480642,-7.390558],[72.46754,-7.383884]]]},"properties":{"id":"IO","names":{"en":"British Indian Ocean Territory"}}},{"type":"Feature","geometry":{"type":"Polygon","coordinates":[[[103.960785,1.391099],[103.804942,1.448635],[103.647634,1.308417],[103.844086,1.2685],[103.960785,1.391099]]]},"properties":{"id":"SG","names":{"en":"Singapore","ja":"シンガポール"}}},{"type":"Feature","geometry":{"type":"Polygon","coordinates":[[[167.984141,-29.017836],[167.926524,-28.997491],[167.926443,-29.066339],[167.985037,-29.059259],[167.984141,-29.017836]]]},"properties":{"id":"NF","names":{"en":"Norfolk Island"}}},{"type":"Feature","geometry":{"type":"Polygon","coordinates":[[[-159.797841,-21.18613],[-159.833079,-21.244561],[-159.743235,-21.254327],[-159.742747,-21.201593],[-159.797841,-21.18613]]]},"properties":{"id":"CK","names":{"en":"Cook Islands","ja":"クック諸島"}}},{"type":"Feature","geometry":{"type":"Polygon","coordinates":[[[-175.065541,-21.123956],[-175.154978,-21.171808],[-175.249827,-21.111261],[-175.325754,-21.173598],[-175.148752,-21.267999],[-175.065541,-21.123956]]]},"properties":{"id":"TO","names":{"en":"Tonga","ja":"トンガ"}}},{"type":"Feature","geometry":{"type":"Polygon","coordinates":[[[-178.142323,-14.243585],[-178.175242,-14.277032],[-178.146921,-14.310154],[-178.108144,-14.278985],[-178.142323,-14.243585]]]},"properties":{"id":"WF","names":{"en":"Wallis and Futuna"}}},{"type":"Feature","geometry":{"type":"Polygon","coordinates":[[[-172.201039,-13.592543],[-172.36616,-13.462823],[-172.749745,-13.578302],[-172.523183,-13.805352],[-172.201039,-13.592543]]]},"properties":{"id":"WS","names":{"en":"Samoa","ja":"サモア"}}},{"type":"Feature","geometry":{"type":"Polygon","coordinates":[[[159.859386,-8.511326],[159.842052,-8.325616],[159.402599,-7.982354],[158.845714,-7.973403],[159.859386,-8.511326]]]},"properties":{"id":"SB","names":{"en":"Solomon Islands","ja":"ソロモン諸島"}}},{"type":"Feature","geometry":{"type":"Polygon","coordinates":[[[179.191254,-8.542087],[179.21754,-8.520603],[179.204112,-8.518976],[179.191254,-8.542087]]]},"properties":{"id":"TV","names":{"en":"Tuvalu","ja":"ツバル"}}},{"type":"Feature","geometry":{"type":"Polygon","coordinates":[[[73.546197,4.243039],[73.512015,4.186301],[73.538174,4.183312],[73.546197,4.243039]]]},"properties":{"id":"MV","names":{"en":"Maldives","ja":"モルディブ"}}},{"type":"Feature","geometry":{"type":"Polygon","coordinates":[[[166.938813,-0.490411],[166.913422,-0.500177],[166.916352,-0.54754],[166.958263,-0.517673],[166.938813,-0.490411]]]},"properties":{"id":"NR","names":{"en":"Nauru","ja":"ナウル"}}},{"type":"Feature","geometry":{"type":"Polygon","coordinates":[[[158.290782,6.937974],[158.125824,6.907416],[158.193533,6.793443],[158.290782,6.937974]]]},"properties":{"id":"FM","names":{"en":"Federated States of Micronesia","ja":"ミクロネシア連邦"}}},{"type":"Feature","geometry":{"type":"Polygon","coordinates":[[[-35.908803,-54.68727],[-36.26061,-54.285414],[-36.463287,-54.53753],[-36.101796,-54.887465],[-35.908803,-54.68727]]]},"properties":{"id":"GS","names":{"en":"South Georgia and the Islands"}}},{"type":"Feature","geometry":{"type":"Polygon","coordinates":[[[-57.816233,-51.693536],[-57.906402,-51.376642],[-58.900868,-51.277765],[-58.660715,-51.955011],[-57.816233,-51.693536]]]},"properties":{"id":"FK","names":{"en":"Falkland Islands"}}},{"type":"Feature","geometry":{"type":"Polygon","coordinates":[[[167.140636,-15.535577],[166.971934,-14.979913],[166.522634,-14.832127],[166.793142,-15.656345],[167.140636,-15.535577]]]},"properties":{"id":"VU","names":{"en":"Vanuatu","ja":"バヌアツ"}}},{"type":"Feature","geometry":{"type":"Polygon","coordinates":[[[-169.851145,-18.965102],[-169.950429,-19.087335],[-169.898915,-19.142755],[-169.79426,-19.047133],[-169.851145,-18.965102]]]},"properties":{"id":"NU","names":{"en":"Niue","ja":"ニウエ"}}},{"type":"Feature","geometry":{"type":"Polygon","coordinates":[[[-170.591013,-14.264825],[-170.661448,-14.252374],[-170.831248,-14.319431],[-170.755483,-14.36712],[-170.591013,-14.264825]]]},"properties":{"id":"AS","names":{"en":"American Samoa"}}},{"type":"Feature","geometry":{"type":"Polygon","coordinates":[[[134.648204,7.719428],[134.499278,7.438218],[134.594249,7.421129],[134.648204,7.719428]]]},"properties":{"id":"PW","names":{"en":"Palau","ja":"パラオ"}}},{"type":"Feature","geometry":{"type":"Polygon","coordinates":[[[144.886404,13.640204],[144.65447,13.439154],[144.760102,13.285631],[144.808279,13.445787],[144.906993,13.516669],[144.886404,13.640204]]]},"properties":{"id":"GU","names":{"en":"Guam"}}},{"type":"Feature","geometry":{"type":"Polygon","coordinates":[[[145.787852,15.267279],[145.698253,15.203192],[145.73878,15.136664],[145.787852,15.267279]]]},"properties":{"id":"MP","names":{"en":"Northern Mariana Islands"}}},{"type":"Feature","geometry":{"type":"Polygon","coordinates":[[[50.551606,26.194241],[50.46046,25.985297],[50.603526,25.85456],[50.614757,26.111151],[50.551606,26.194241]]]},"properties":{"id":"BH","names":{"en":"Bahrain","ja":"バーレーン"}}},{"type":"Feature","geometry":{"type":"Polygon","coordinates":[[[154.391287,-21.030043],[154.391287,-21.028741],[154.38852,-21.029067],[154.391287,-21.030043]]]},"properties":{"id":"XX-CORAL-SEA-ISLANDS","names":{"en":"Coral Sea Islands"}}},{"type":"Feature","geometry":{"type":"Polygon","coordinates":[[[115.830577,10.734605],[115.814626,10.73432],[115.81837,10.720852],[115.830577,10.734605]]]},"properties":{"id":"XX-SPRATLY-ISLANDS","names":{"en":"Spratly Islands"}}},{"type":"Feature","geometry":{"type":"Polygon","coordinates":[[[-109.212026,10.30268],[-109.234242,10.307929],[-109.218577,10.281562],[-109.212026,10.30268]]]},"properties":{"id":"XX-CLIPPERTON-ISLAND","names":{"en":"Clipperton Island"}}},{"type":"Feature","geometry":{"type":"Polygon","coordinates":[[[113.558604,22.163031],[113.534434,22.1612],[113.546804,22.105373],[113.566742,22.123358],[113.558604,22.163031]]]},"properties":{"id":"MO","names":{"en":"Macao S.A.R","ja":"マカオ特別行政区"}}},{"type":"Feature","geometry":{"type":"Polygon","coordinates":[[[123.597016,-12.428318],[123.575043,-12.426609],[123.575613,-12.436782],[123.597748,-12.438572],[123.597016,-12.428318]]]},"properties":{"id":"XX-ASHMORE-AND-CARTIER-ISLANDS","names":{"en":"Ashmore and Cartier Islands"}}},{"type":"Feature","geometry":{"type":"Polygon","coordinates":[[[-79.989288,15.794949],[-79.988149,15.794176],[-79.986399,15.79442],[-79.987823,15.79621],[-79.989288,15.794949]]]},"properties":{"id":"XX-BAJO-NUEVO-BANK-PETREL-IS","names":{"en":"Bajo Nuevo Bank (Petrel Is.)"}}},{"type":"Feature","geometry":{"type":"Polygon","coordinates":[[[-78.637074,15.862087],[-78.636871,15.867296],[-78.640411,15.864],[-78.637074,15.862087]]]},"properties":{"id":"XX-SERRANILLA-BANK","names":{"en":"Serranilla Bank"}}},{"type":"Feature","geometry":{"type":"Polygon","coordinates":[[[117.753887,15.154369],[117.751856,15.151887],[117.753887,15.150082],[117.755692,15.151887],[117.753887,15.154369]]]},"properties":{"id":"XX-SCARBOROUGH-REEF","names":{"en":"Scarborough Reef"}}}]}
